{
"type": "FeatureCollection",
"crs": { "type": "name", "properties": { "name": "urn:ogc:def:crs:OGC:1.3:CRS84" } },
"features": [
{ "type": "Feature", "properties": { "CMPLNT_NUM": "288726989", "ADDR_PCT_CD": 24, "BORO_NM": "MANHATTAN", "CMPLNT_FR_DT": "6/18/2024", "CMPLNT_FR_TM": "14:00:00", "CMPLNT_TO_DT": "6/18/2024", "CMPLNT_TO_TM": "15:30:00", "CRM_ATPT_CPTD_CD": "COMPLETED", "HADEVELOPT": "(null)", "JURIS_DESC": "N.Y. POLICE DEPT", "KY_CD": 341, "LAW_CAT_CD": "MISDEMEANOR", "LOC_OF_OCCUR_DESC": "FRONT OF", "OFNS_DESC": "PETIT LARCENY", "PARKS_NM": "(null)", "PD_CD": 339.0, "PD_DESC": "LARCENY,PETIT FROM OPEN AREAS,", "PREM_TYP_DESC": "RESIDENCE - APT. HOUSE", "RPT_DT": "6/18/2024", "X_COORD_CD": 995516.0, "Y_COORD_CD": 230389.0, "Latitude": 40.799035, "Longitude": -73.959307, "Lat_Lon": "(40.799035, -73.959307)", "index_right": 0 }, "geometry": { "type": "Point", "coordinates": [ -73.959307, 40.799035 ] } },
{ "type": "Feature", "properties": { "CMPLNT_NUM": "281310060", "ADDR_PCT_CD": 24, "BORO_NM": "MANHATTAN", "CMPLNT_FR_DT": "12/4/2023", "CMPLNT_FR_TM": "22:00:00", "CMPLNT_TO_DT": "1/12/2024", "CMPLNT_TO_TM": "22:30:00", "CRM_ATPT_CPTD_CD": "COMPLETED", "HADEVELOPT": "(null)", "JURIS_DESC": "N.Y. POLICE DEPT", "KY_CD": 109, "LAW_CAT_CD": "FELONY", "LOC_OF_OCCUR_DESC": "INSIDE", "OFNS_DESC": "GRAND LARCENY", "PARKS_NM": "(null)", "PD_CD": 439.0, "PD_DESC": "LARCENY,GRAND FROM OPEN AREAS, UNATTENDED", "PREM_TYP_DESC": "RESIDENCE - APT. HOUSE", "RPT_DT": "1/29/2024", "X_COORD_CD": 995224.0, "Y_COORD_CD": 231279.0, "Latitude": 40.801478, "Longitude": -73.960362, "Lat_Lon": "(40.801478, -73.960362)", "index_right": 0 }, "geometry": { "type": "Point", "coordinates": [ -73.960362, 40.801478 ] } },
{ "type": "Feature", "properties": { "CMPLNT_NUM": "283538683", "ADDR_PCT_CD": 26, "BORO_NM": "MANHATTAN", "CMPLNT_FR_DT": "3/10/2024", "CMPLNT_FR_TM": "23:00:00", "CMPLNT_TO_DT": "3/11/2024", "CMPLNT_TO_TM": "7:30:00", "CRM_ATPT_CPTD_CD": "COMPLETED", "HADEVELOPT": "(null)", "JURIS_DESC": "N.Y. POLICE DEPT", "KY_CD": 121, "LAW_CAT_CD": "FELONY", "LOC_OF_OCCUR_DESC": "(null)", "OFNS_DESC": "CRIMINAL MISCHIEF & RELATED OF", "PARKS_NM": "(null)", "PD_CD": 267.0, "PD_DESC": "MISCHIEF, CRIMINAL 3 & 2, OF M", "PREM_TYP_DESC": "STREET", "RPT_DT": "3/11/2024", "X_COORD_CD": 995236.0, "Y_COORD_CD": 232195.0, "Latitude": 40.80399069, "Longitude": -73.96031762, "Lat_Lon": "(40.803990685157046, -73.96031761838267)", "index_right": 0 }, "geometry": { "type": "Point", "coordinates": [ -73.96031762, 40.80399069 ] } },
{ "type": "Feature", "properties": { "CMPLNT_NUM": "282311727", "ADDR_PCT_CD": 24, "BORO_NM": "MANHATTAN", "CMPLNT_FR_DT": "2/16/2024", "CMPLNT_FR_TM": "4:20:00", "CMPLNT_TO_DT": "2/16/2024", "CMPLNT_TO_TM": "4:30:00", "CRM_ATPT_CPTD_CD": "ATTEMPTED", "HADEVELOPT": "(null)", "JURIS_DESC": "N.Y. POLICE DEPT", "KY_CD": 105, "LAW_CAT_CD": "FELONY", "LOC_OF_OCCUR_DESC": "FRONT OF", "OFNS_DESC": "ROBBERY", "PARKS_NM": "(null)", "PD_CD": 386.0, "PD_DESC": "ROBBERY,PERSONAL ELECTRONIC DEVICE", "PREM_TYP_DESC": "STREET", "RPT_DT": "2/16/2024", "X_COORD_CD": 995384.0, "Y_COORD_CD": 230150.0, "Latitude": 40.798378, "Longitude": -73.959783, "Lat_Lon": "(40.798378, -73.959783)", "index_right": 0 }, "geometry": { "type": "Point", "coordinates": [ -73.959783, 40.798378 ] } },
{ "type": "Feature", "properties": { "CMPLNT_NUM": "287883643", "ADDR_PCT_CD": 26, "BORO_NM": "MANHATTAN", "CMPLNT_FR_DT": "6/2/2024", "CMPLNT_FR_TM": "8:45:00", "CMPLNT_TO_DT": "6/2/2024", "CMPLNT_TO_TM": "9:30:00", "CRM_ATPT_CPTD_CD": "COMPLETED", "HADEVELOPT": "(null)", "JURIS_DESC": "N.Y. POLICE DEPT", "KY_CD": 341, "LAW_CAT_CD": "MISDEMEANOR", "LOC_OF_OCCUR_DESC": "FRONT OF", "OFNS_DESC": "PETIT LARCENY", "PARKS_NM": "(null)", "PD_CD": 339.0, "PD_DESC": "LARCENY,PETIT FROM OPEN AREAS,", "PREM_TYP_DESC": "STREET", "RPT_DT": "6/3/2024", "X_COORD_CD": 995357.0, "Y_COORD_CD": 233815.0, "Latitude": 40.808437, "Longitude": -73.959877, "Lat_Lon": "(40.808437, -73.959877)", "index_right": 0 }, "geometry": { "type": "Point", "coordinates": [ -73.959877, 40.808437 ] } },
{ "type": "Feature", "properties": { "CMPLNT_NUM": "282228553", "ADDR_PCT_CD": 26, "BORO_NM": "MANHATTAN", "CMPLNT_FR_DT": "2/11/2024", "CMPLNT_FR_TM": "22:18:00", "CMPLNT_TO_DT": "2/12/2024", "CMPLNT_TO_TM": "22:23:00", "CRM_ATPT_CPTD_CD": "COMPLETED", "HADEVELOPT": "(null)", "JURIS_DESC": "N.Y. POLICE DEPT", "KY_CD": 109, "LAW_CAT_CD": "FELONY", "LOC_OF_OCCUR_DESC": "INSIDE", "OFNS_DESC": "GRAND LARCENY", "PARKS_NM": "(null)", "PD_CD": 405.0, "PD_DESC": "LARCENY,GRAND BY THEFT OF CREDIT CARD", "PREM_TYP_DESC": "RESIDENCE - APT. HOUSE", "RPT_DT": "2/14/2024", "X_COORD_CD": 995269.0, "Y_COORD_CD": 232325.0, "Latitude": 40.804349, "Longitude": -73.960196, "Lat_Lon": "(40.804349, -73.960196)", "index_right": 0 }, "geometry": { "type": "Point", "coordinates": [ -73.960196, 40.804349 ] } },
{ "type": "Feature", "properties": { "CMPLNT_NUM": "286749854", "ADDR_PCT_CD": 28, "BORO_NM": "MANHATTAN", "CMPLNT_FR_DT": "5/12/2024", "CMPLNT_FR_TM": "9:15:00", "CMPLNT_TO_DT": "5/12/2024", "CMPLNT_TO_TM": "9:20:00", "CRM_ATPT_CPTD_CD": "COMPLETED", "HADEVELOPT": "(null)", "JURIS_DESC": "N.Y. POLICE DEPT", "KY_CD": 578, "LAW_CAT_CD": "VIOLATION", "LOC_OF_OCCUR_DESC": "INSIDE", "OFNS_DESC": "HARRASSMENT 2", "PARKS_NM": "(null)", "PD_CD": 637.0, "PD_DESC": "HARASSMENT,SUBD 1,CIVILIAN", "PREM_TYP_DESC": "RESIDENCE - APT. HOUSE", "RPT_DT": "5/12/2024", "X_COORD_CD": 995583.0, "Y_COORD_CD": 231074.0, "Latitude": 40.800913, "Longitude": -73.959064, "Lat_Lon": "(40.800913, -73.959064)", "index_right": 0 }, "geometry": { "type": "Point", "coordinates": [ -73.959064, 40.800913 ] } },
{ "type": "Feature", "properties": { "CMPLNT_NUM": "283281936", "ADDR_PCT_CD": 26, "BORO_NM": "MANHATTAN", "CMPLNT_FR_DT": "3/4/2024", "CMPLNT_FR_TM": "10:00:00", "CMPLNT_TO_DT": "3/4/2024", "CMPLNT_TO_TM": "16:30:00", "CRM_ATPT_CPTD_CD": "COMPLETED", "HADEVELOPT": "(null)", "JURIS_DESC": "N.Y. POLICE DEPT", "KY_CD": 341, "LAW_CAT_CD": "MISDEMEANOR", "LOC_OF_OCCUR_DESC": "FRONT OF", "OFNS_DESC": "PETIT LARCENY", "PARKS_NM": "(null)", "PD_CD": 343.0, "PD_DESC": "LARCENY,PETIT OF BICYCLE", "PREM_TYP_DESC": "STREET", "RPT_DT": "3/6/2024", "X_COORD_CD": 995265.0, "Y_COORD_CD": 233097.0, "Latitude": 40.806468, "Longitude": -73.960209, "Lat_Lon": "(40.806468, -73.960209)", "index_right": 0 }, "geometry": { "type": "Point", "coordinates": [ -73.960209, 40.806468 ] } },
{ "type": "Feature", "properties": { "CMPLNT_NUM": "280683253", "ADDR_PCT_CD": 26, "BORO_NM": "MANHATTAN", "CMPLNT_FR_DT": "1/17/2024", "CMPLNT_FR_TM": "18:35:00", "CMPLNT_TO_DT": "1/17/2024", "CMPLNT_TO_TM": "18:39:00", "CRM_ATPT_CPTD_CD": "COMPLETED", "HADEVELOPT": "(null)", "JURIS_DESC": "N.Y. POLICE DEPT", "KY_CD": 109, "LAW_CAT_CD": "FELONY", "LOC_OF_OCCUR_DESC": "INSIDE", "OFNS_DESC": "GRAND LARCENY", "PARKS_NM": "(null)", "PD_CD": 402.0, "PD_DESC": "LARCENY,GRAND BY FALSE PROMISE-NOT IN PERSON CONTACT", "PREM_TYP_DESC": "RESIDENCE - APT. HOUSE", "RPT_DT": "1/17/2024", "X_COORD_CD": 995269.0, "Y_COORD_CD": 232325.0, "Latitude": 40.804349, "Longitude": -73.960196, "Lat_Lon": "(40.804349, -73.960196)", "index_right": 0 }, "geometry": { "type": "Point", "coordinates": [ -73.960196, 40.804349 ] } },
{ "type": "Feature", "properties": { "CMPLNT_NUM": "283538686", "ADDR_PCT_CD": 26, "BORO_NM": "MANHATTAN", "CMPLNT_FR_DT": "3/10/2024", "CMPLNT_FR_TM": "18:00:00", "CMPLNT_TO_DT": "3/11/2024", "CMPLNT_TO_TM": "11:48:00", "CRM_ATPT_CPTD_CD": "COMPLETED", "HADEVELOPT": "(null)", "JURIS_DESC": "N.Y. POLICE DEPT", "KY_CD": 121, "LAW_CAT_CD": "FELONY", "LOC_OF_OCCUR_DESC": "(null)", "OFNS_DESC": "CRIMINAL MISCHIEF & RELATED OF", "PARKS_NM": "(null)", "PD_CD": 267.0, "PD_DESC": "MISCHIEF, CRIMINAL 3 & 2, OF M", "PREM_TYP_DESC": "STREET", "RPT_DT": "3/11/2024", "X_COORD_CD": 995236.0, "Y_COORD_CD": 232195.0, "Latitude": 40.80399069, "Longitude": -73.96031762, "Lat_Lon": "(40.803990685157046, -73.96031761838267)", "index_right": 0 }, "geometry": { "type": "Point", "coordinates": [ -73.96031762, 40.80399069 ] } },
{ "type": "Feature", "properties": { "CMPLNT_NUM": "281409952", "ADDR_PCT_CD": 26, "BORO_NM": "MANHATTAN", "CMPLNT_FR_DT": "1/30/2024", "CMPLNT_FR_TM": "21:01:00", "CMPLNT_TO_DT": "1/30/2024", "CMPLNT_TO_TM": "21:40:00", "CRM_ATPT_CPTD_CD": "COMPLETED", "HADEVELOPT": "(null)", "JURIS_DESC": "N.Y. POLICE DEPT", "KY_CD": 126, "LAW_CAT_CD": "FELONY", "LOC_OF_OCCUR_DESC": "INSIDE", "OFNS_DESC": "MISCELLANEOUS PENAL LAW", "PARKS_NM": "(null)", "PD_CD": 640.0, "PD_DESC": "AGGRAVATED HARASSMENT 1", "PREM_TYP_DESC": "RESIDENCE - APT. HOUSE", "RPT_DT": "1/30/2024", "X_COORD_CD": 995435.0, "Y_COORD_CD": 232844.0, "Latitude": 40.805774, "Longitude": -73.959594, "Lat_Lon": "(40.805774, -73.959594)", "index_right": 0 }, "geometry": { "type": "Point", "coordinates": [ -73.959594, 40.805774 ] } },
{ "type": "Feature", "properties": { "CMPLNT_NUM": "281198283", "ADDR_PCT_CD": 24, "BORO_NM": "MANHATTAN", "CMPLNT_FR_DT": "1/27/2024", "CMPLNT_FR_TM": "7:58:00", "CMPLNT_TO_DT": "1/27/2024", "CMPLNT_TO_TM": "8:42:00", "CRM_ATPT_CPTD_CD": "COMPLETED", "HADEVELOPT": "(null)", "JURIS_DESC": "N.Y. POLICE DEPT", "KY_CD": 359, "LAW_CAT_CD": "MISDEMEANOR", "LOC_OF_OCCUR_DESC": "INSIDE", "OFNS_DESC": "OFFENSES AGAINST PUBLIC ADMINI", "PARKS_NM": "(null)", "PD_CD": 748.0, "PD_DESC": "CONTEMPT,CRIMINAL", "PREM_TYP_DESC": "RESIDENCE - APT. HOUSE", "RPT_DT": "1/27/2024", "X_COORD_CD": 995583.0, "Y_COORD_CD": 231074.0, "Latitude": 40.800913, "Longitude": -73.959064, "Lat_Lon": "(40.800913, -73.959064)", "index_right": 0 }, "geometry": { "type": "Point", "coordinates": [ -73.959064, 40.800913 ] } },
{ "type": "Feature", "properties": { "CMPLNT_NUM": "281214401", "ADDR_PCT_CD": 28, "BORO_NM": "MANHATTAN", "CMPLNT_FR_DT": "1/27/2024", "CMPLNT_FR_TM": "16:15:00", "CMPLNT_TO_DT": "1/27/2024", "CMPLNT_TO_TM": "16:21:00", "CRM_ATPT_CPTD_CD": "COMPLETED", "HADEVELOPT": "(null)", "JURIS_DESC": "N.Y. POLICE DEPT", "KY_CD": 113, "LAW_CAT_CD": "FELONY", "LOC_OF_OCCUR_DESC": "(null)", "OFNS_DESC": "FORGERY", "PARKS_NM": "(null)", "PD_CD": 729.0, "PD_DESC": "FORGERY,ETC.,UNCLASSIFIED-FELO", "PREM_TYP_DESC": "STREET", "RPT_DT": "1/27/2024", "X_COORD_CD": 995422.0, "Y_COORD_CD": 231162.0, "Latitude": 40.80115515, "Longitude": -73.95964749, "Lat_Lon": "(40.801155150457596, -73.95964748925182)", "index_right": 0 }, "geometry": { "type": "Point", "coordinates": [ -73.95964749, 40.80115515 ] } },
{ "type": "Feature", "properties": { "CMPLNT_NUM": "285625076", "ADDR_PCT_CD": 26, "BORO_NM": "MANHATTAN", "CMPLNT_FR_DT": "4/19/2024", "CMPLNT_FR_TM": "21:25:00", "CMPLNT_TO_DT": "4/19/2024", "CMPLNT_TO_TM": "21:30:00", "CRM_ATPT_CPTD_CD": "COMPLETED", "HADEVELOPT": "(null)", "JURIS_DESC": "N.Y. POLICE DEPT", "KY_CD": 105, "LAW_CAT_CD": "FELONY", "LOC_OF_OCCUR_DESC": "(null)", "OFNS_DESC": "ROBBERY", "PARKS_NM": "MORNINGSIDE PARK", "PD_CD": 386.0, "PD_DESC": "ROBBERY,PERSONAL ELECTRONIC DEVICE", "PREM_TYP_DESC": "PARK/PLAYGROUND", "RPT_DT": "4/19/2024", "X_COORD_CD": 995499.0, "Y_COORD_CD": 232969.0, "Latitude": 40.80611477, "Longitude": -73.95936634, "Lat_Lon": "(40.806114770946664, -73.95936634291944)", "index_right": 0 }, "geometry": { "type": "Point", "coordinates": [ -73.95936634, 40.80611477 ] } },
{ "type": "Feature", "properties": { "CMPLNT_NUM": "279794244", "ADDR_PCT_CD": 26, "BORO_NM": "MANHATTAN", "CMPLNT_FR_DT": "1/1/2024", "CMPLNT_FR_TM": "18:30:00", "CMPLNT_TO_DT": "1/1/2024", "CMPLNT_TO_TM": "18:35:00", "CRM_ATPT_CPTD_CD": "COMPLETED", "HADEVELOPT": "(null)", "JURIS_DESC": "N.Y. POLICE DEPT", "KY_CD": 121, "LAW_CAT_CD": "FELONY", "LOC_OF_OCCUR_DESC": "FRONT OF", "OFNS_DESC": "CRIMINAL MISCHIEF & RELATED OF", "PARKS_NM": "(null)", "PD_CD": 267.0, "PD_DESC": "MISCHIEF, CRIMINAL 3 & 2, OF M", "PREM_TYP_DESC": "COLLEGE/UNIVERSITY", "RPT_DT": "1/1/2024", "X_COORD_CD": 995265.0, "Y_COORD_CD": 233097.0, "Latitude": 40.806468, "Longitude": -73.960209, "Lat_Lon": "(40.806468, -73.960209)", "index_right": 0 }, "geometry": { "type": "Point", "coordinates": [ -73.960209, 40.806468 ] } },
{ "type": "Feature", "properties": { "CMPLNT_NUM": "283553116", "ADDR_PCT_CD": 26, "BORO_NM": "MANHATTAN", "CMPLNT_FR_DT": "3/11/2024", "CMPLNT_FR_TM": "11:32:00", "CMPLNT_TO_DT": "3/11/2024", "CMPLNT_TO_TM": "11:48:00", "CRM_ATPT_CPTD_CD": "COMPLETED", "HADEVELOPT": "(null)", "JURIS_DESC": "N.Y. POLICE DEPT", "KY_CD": 121, "LAW_CAT_CD": "FELONY", "LOC_OF_OCCUR_DESC": "(null)", "OFNS_DESC": "CRIMINAL MISCHIEF & RELATED OF", "PARKS_NM": "(null)", "PD_CD": 267.0, "PD_DESC": "MISCHIEF, CRIMINAL 3 & 2, OF M", "PREM_TYP_DESC": "STREET", "RPT_DT": "3/11/2024", "X_COORD_CD": 995236.0, "Y_COORD_CD": 232195.0, "Latitude": 40.80399069, "Longitude": -73.96031762, "Lat_Lon": "(40.803990685157046, -73.96031761838267)", "index_right": 0 }, "geometry": { "type": "Point", "coordinates": [ -73.96031762, 40.80399069 ] } },
{ "type": "Feature", "properties": { "CMPLNT_NUM": "280934891", "ADDR_PCT_CD": 24, "BORO_NM": "MANHATTAN", "CMPLNT_FR_DT": "1/12/2024", "CMPLNT_FR_TM": "22:00:00", "CMPLNT_TO_DT": "1/13/2024", "CMPLNT_TO_TM": "10:00:00", "CRM_ATPT_CPTD_CD": "COMPLETED", "HADEVELOPT": "(null)", "JURIS_DESC": "N.Y. POLICE DEPT", "KY_CD": 341, "LAW_CAT_CD": "MISDEMEANOR", "LOC_OF_OCCUR_DESC": "(null)", "OFNS_DESC": "PETIT LARCENY", "PARKS_NM": "(null)", "PD_CD": 321.0, "PD_DESC": "LARCENY,PETIT FROM AUTO", "PREM_TYP_DESC": "STREET", "RPT_DT": "1/22/2024", "X_COORD_CD": 995707.0, "Y_COORD_CD": 230733.0, "Latitude": 40.7999773, "Longitude": -73.95861882, "Lat_Lon": "(40.79997729788985, -73.95861882061581)", "index_right": 0 }, "geometry": { "type": "Point", "coordinates": [ -73.95861882, 40.7999773 ] } },
{ "type": "Feature", "properties": { "CMPLNT_NUM": "281574800", "ADDR_PCT_CD": 26, "BORO_NM": "MANHATTAN", "CMPLNT_FR_DT": "2/2/2024", "CMPLNT_FR_TM": "16:44:00", "CMPLNT_TO_DT": "2/2/2024", "CMPLNT_TO_TM": "16:55:00", "CRM_ATPT_CPTD_CD": "COMPLETED", "HADEVELOPT": "(null)", "JURIS_DESC": "N.Y. POLICE DEPT", "KY_CD": 109, "LAW_CAT_CD": "FELONY", "LOC_OF_OCCUR_DESC": "(null)", "OFNS_DESC": "GRAND LARCENY", "PARKS_NM": "(null)", "PD_CD": 419.0, "PD_DESC": "LARCENY,GRAND FROM PERSON,UNCL", "PREM_TYP_DESC": "STREET", "RPT_DT": "2/2/2024", "X_COORD_CD": 995420.0, "Y_COORD_CD": 233930.0, "Latitude": 40.80875255, "Longitude": -73.95965011, "Lat_Lon": "(40.808752550355386, -73.9596501078184)", "index_right": 0 }, "geometry": { "type": "Point", "coordinates": [ -73.95965011, 40.80875255 ] } },
{ "type": "Feature", "properties": { "CMPLNT_NUM": "284789441", "ADDR_PCT_CD": 26, "BORO_NM": "MANHATTAN", "CMPLNT_FR_DT": "4/4/2024", "CMPLNT_FR_TM": "13:30:00", "CMPLNT_TO_DT": "4/4/2024", "CMPLNT_TO_TM": "13:35:00", "CRM_ATPT_CPTD_CD": "COMPLETED", "HADEVELOPT": "(null)", "JURIS_DESC": "N.Y. POLICE DEPT", "KY_CD": 126, "LAW_CAT_CD": "FELONY", "LOC_OF_OCCUR_DESC": "INSIDE", "OFNS_DESC": "MISCELLANEOUS PENAL LAW", "PARKS_NM": "(null)", "PD_CD": 640.0, "PD_DESC": "AGGRAVATED HARASSMENT 1", "PREM_TYP_DESC": "COLLEGE/UNIVERSITY", "RPT_DT": "4/4/2024", "X_COORD_CD": 995357.0, "Y_COORD_CD": 233815.0, "Latitude": 40.808437, "Longitude": -73.959877, "Lat_Lon": "(40.808437, -73.959877)", "index_right": 0 }, "geometry": { "type": "Point", "coordinates": [ -73.959877, 40.808437 ] } },
{ "type": "Feature", "properties": { "CMPLNT_NUM": "288137851", "ADDR_PCT_CD": 26, "BORO_NM": "MANHATTAN", "CMPLNT_FR_DT": "6/6/2024", "CMPLNT_FR_TM": "17:00:00", "CMPLNT_TO_DT": "6/7/2024", "CMPLNT_TO_TM": "6:00:00", "CRM_ATPT_CPTD_CD": "COMPLETED", "HADEVELOPT": "(null)", "JURIS_DESC": "N.Y. POLICE DEPT", "KY_CD": 107, "LAW_CAT_CD": "FELONY", "LOC_OF_OCCUR_DESC": "(null)", "OFNS_DESC": "BURGLARY", "PARKS_NM": "(null)", "PD_CD": 233.0, "PD_DESC": "BURGLARY,TRUCK NIGHT", "PREM_TYP_DESC": "STREET", "RPT_DT": "6/7/2024", "X_COORD_CD": 995422.0, "Y_COORD_CD": 231162.0, "Latitude": 40.80115515, "Longitude": -73.95964749, "Lat_Lon": "(40.801155150457596, -73.95964748925182)", "index_right": 0 }, "geometry": { "type": "Point", "coordinates": [ -73.95964749, 40.80115515 ] } },
{ "type": "Feature", "properties": { "CMPLNT_NUM": "284744624", "ADDR_PCT_CD": 26, "BORO_NM": "MANHATTAN", "CMPLNT_FR_DT": "4/3/2024", "CMPLNT_FR_TM": "18:12:00", "CMPLNT_TO_DT": "4/3/2024", "CMPLNT_TO_TM": "18:30:00", "CRM_ATPT_CPTD_CD": "COMPLETED", "HADEVELOPT": "(null)", "JURIS_DESC": "N.Y. POLICE DEPT", "KY_CD": 359, "LAW_CAT_CD": "MISDEMEANOR", "LOC_OF_OCCUR_DESC": "INSIDE", "OFNS_DESC": "OFFENSES AGAINST PUBLIC ADMINI", "PARKS_NM": "(null)", "PD_CD": 750.0, "PD_DESC": "RESISTING ARREST", "PREM_TYP_DESC": "COLLEGE/UNIVERSITY", "RPT_DT": "4/3/2024", "X_COORD_CD": 995162.0, "Y_COORD_CD": 233462.0, "Latitude": 40.807471, "Longitude": -73.96058, "Lat_Lon": "(40.807471, -73.96058)", "index_right": 0 }, "geometry": { "type": "Point", "coordinates": [ -73.96058, 40.807471 ] } },
{ "type": "Feature", "properties": { "CMPLNT_NUM": "287880000", "ADDR_PCT_CD": 24, "BORO_NM": "MANHATTAN", "CMPLNT_FR_DT": "5/31/2024", "CMPLNT_FR_TM": "21:40:00", "CMPLNT_TO_DT": "5/31/2024", "CMPLNT_TO_TM": "21:43:00", "CRM_ATPT_CPTD_CD": "COMPLETED", "HADEVELOPT": "(null)", "JURIS_DESC": "N.Y. POLICE DEPT", "KY_CD": 109, "LAW_CAT_CD": "FELONY", "LOC_OF_OCCUR_DESC": "(null)", "OFNS_DESC": "GRAND LARCENY", "PARKS_NM": "(null)", "PD_CD": 439.0, "PD_DESC": "LARCENY,GRAND FROM OPEN AREAS, UNATTENDED", "PREM_TYP_DESC": "STREET", "RPT_DT": "6/3/2024", "X_COORD_CD": 994926.0, "Y_COORD_CD": 229324.0, "Latitude": 40.79611095, "Longitude": -73.96144193000001, "Lat_Lon": "(40.79611095494556, -73.96144192977374)", "index_right": 0 }, "geometry": { "type": "Point", "coordinates": [ -73.96144193, 40.79611095 ] } },
{ "type": "Feature", "properties": { "CMPLNT_NUM": "283346280", "ADDR_PCT_CD": 24, "BORO_NM": "MANHATTAN", "CMPLNT_FR_DT": "3/6/2024", "CMPLNT_FR_TM": "12:15:00", "CMPLNT_TO_DT": "3/6/2024", "CMPLNT_TO_TM": "15:00:00", "CRM_ATPT_CPTD_CD": "COMPLETED", "HADEVELOPT": "(null)", "JURIS_DESC": "N.Y. POLICE DEPT", "KY_CD": 109, "LAW_CAT_CD": "FELONY", "LOC_OF_OCCUR_DESC": "INSIDE", "OFNS_DESC": "GRAND LARCENY", "PARKS_NM": "(null)", "PD_CD": 402.0, "PD_DESC": "LARCENY,GRAND BY FALSE PROMISE-NOT IN PERSON CONTACT", "PREM_TYP_DESC": "RESIDENCE - APT. HOUSE", "RPT_DT": "3/7/2024", "X_COORD_CD": 994990.0, "Y_COORD_CD": 229438.0, "Latitude": 40.796425, "Longitude": -73.96121, "Lat_Lon": "(40.796425, -73.96121)", "index_right": 0 }, "geometry": { "type": "Point", "coordinates": [ -73.96121, 40.796425 ] } },
{ "type": "Feature", "properties": { "CMPLNT_NUM": "283538685", "ADDR_PCT_CD": 26, "BORO_NM": "MANHATTAN", "CMPLNT_FR_DT": "3/10/2024", "CMPLNT_FR_TM": "14:00:00", "CMPLNT_TO_DT": "3/11/2024", "CMPLNT_TO_TM": "12:48:00", "CRM_ATPT_CPTD_CD": "COMPLETED", "HADEVELOPT": "(null)", "JURIS_DESC": "N.Y. POLICE DEPT", "KY_CD": 121, "LAW_CAT_CD": "FELONY", "LOC_OF_OCCUR_DESC": "(null)", "OFNS_DESC": "CRIMINAL MISCHIEF & RELATED OF", "PARKS_NM": "(null)", "PD_CD": 267.0, "PD_DESC": "MISCHIEF, CRIMINAL 3 & 2, OF M", "PREM_TYP_DESC": "STREET", "RPT_DT": "3/11/2024", "X_COORD_CD": 995236.0, "Y_COORD_CD": 232195.0, "Latitude": 40.80399069, "Longitude": -73.96031762, "Lat_Lon": "(40.803990685157046, -73.96031761838267)", "index_right": 0 }, "geometry": { "type": "Point", "coordinates": [ -73.96031762, 40.80399069 ] } },
{ "type": "Feature", "properties": { "CMPLNT_NUM": "288989508", "ADDR_PCT_CD": 24, "BORO_NM": "MANHATTAN", "CMPLNT_FR_DT": "6/23/2024", "CMPLNT_FR_TM": "19:00:00", "CMPLNT_TO_DT": "6/23/2024", "CMPLNT_TO_TM": "20:54:00", "CRM_ATPT_CPTD_CD": "COMPLETED", "HADEVELOPT": "(null)", "JURIS_DESC": "N.Y. POLICE DEPT", "KY_CD": 351, "LAW_CAT_CD": "MISDEMEANOR", "LOC_OF_OCCUR_DESC": "FRONT OF", "OFNS_DESC": "CRIMINAL MISCHIEF & RELATED OF", "PARKS_NM": "(null)", "PD_CD": 254.0, "PD_DESC": "MISCHIEF, CRIMINAL 4, OF MOTOR", "PREM_TYP_DESC": "STREET", "RPT_DT": "6/23/2024", "X_COORD_CD": 995516.0, "Y_COORD_CD": 230389.0, "Latitude": 40.799035, "Longitude": -73.959307, "Lat_Lon": "(40.799035, -73.959307)", "index_right": 0 }, "geometry": { "type": "Point", "coordinates": [ -73.959307, 40.799035 ] } },
{ "type": "Feature", "properties": { "CMPLNT_NUM": "288053216", "ADDR_PCT_CD": 26, "BORO_NM": "MANHATTAN", "CMPLNT_FR_DT": "6/5/2024", "CMPLNT_FR_TM": "3:00:00", "CMPLNT_TO_DT": "6/5/2024", "CMPLNT_TO_TM": "3:30:00", "CRM_ATPT_CPTD_CD": "COMPLETED", "HADEVELOPT": "(null)", "JURIS_DESC": "N.Y. POLICE DEPT", "KY_CD": 109, "LAW_CAT_CD": "FELONY", "LOC_OF_OCCUR_DESC": "(null)", "OFNS_DESC": "GRAND LARCENY", "PARKS_NM": "(null)", "PD_CD": 419.0, "PD_DESC": "LARCENY,GRAND FROM PERSON,UNCL", "PREM_TYP_DESC": "OTHER", "RPT_DT": "6/6/2024", "X_COORD_CD": 995499.0, "Y_COORD_CD": 232969.0, "Latitude": 40.80611477, "Longitude": -73.95936634, "Lat_Lon": "(40.806114770946664, -73.95936634291944)", "index_right": 0 }, "geometry": { "type": "Point", "coordinates": [ -73.95936634, 40.80611477 ] } },
{ "type": "Feature", "properties": { "CMPLNT_NUM": "284800515", "ADDR_PCT_CD": 26, "BORO_NM": "MANHATTAN", "CMPLNT_FR_DT": "3/24/2024", "CMPLNT_FR_TM": "15:29:00", "CMPLNT_TO_DT": "3/26/2024", "CMPLNT_TO_TM": "14:00:00", "CRM_ATPT_CPTD_CD": "COMPLETED", "HADEVELOPT": "(null)", "JURIS_DESC": "N.Y. POLICE DEPT", "KY_CD": 109, "LAW_CAT_CD": "FELONY", "LOC_OF_OCCUR_DESC": "INSIDE", "OFNS_DESC": "GRAND LARCENY", "PARKS_NM": "(null)", "PD_CD": 401.0, "PD_DESC": "LARCENY,GRAND BY ACQUIRING LOS", "PREM_TYP_DESC": "RESIDENCE - APT. HOUSE", "RPT_DT": "4/4/2024", "X_COORD_CD": 995269.0, "Y_COORD_CD": 232325.0, "Latitude": 40.804349, "Longitude": -73.960196, "Lat_Lon": "(40.804349, -73.960196)", "index_right": 0 }, "geometry": { "type": "Point", "coordinates": [ -73.960196, 40.804349 ] } },
{ "type": "Feature", "properties": { "CMPLNT_NUM": "285350951", "ADDR_PCT_CD": 24, "BORO_NM": "MANHATTAN", "CMPLNT_FR_DT": "4/12/2024", "CMPLNT_FR_TM": "12:44:00", "CMPLNT_TO_DT": "4/14/2024", "CMPLNT_TO_TM": "10:25:00", "CRM_ATPT_CPTD_CD": "COMPLETED", "HADEVELOPT": "(null)", "JURIS_DESC": "N.Y. POLICE DEPT", "KY_CD": 361, "LAW_CAT_CD": "MISDEMEANOR", "LOC_OF_OCCUR_DESC": "INSIDE", "OFNS_DESC": "OFF. AGNST PUB ORD SENSBLTY &", "PARKS_NM": "(null)", "PD_CD": 639.0, "PD_DESC": "AGGRAVATED HARASSMENT 2", "PREM_TYP_DESC": "RESIDENCE - APT. HOUSE", "RPT_DT": "4/14/2024", "X_COORD_CD": 994990.0, "Y_COORD_CD": 229438.0, "Latitude": 40.796425, "Longitude": -73.96121, "Lat_Lon": "(40.796425, -73.96121)", "index_right": 0 }, "geometry": { "type": "Point", "coordinates": [ -73.96121, 40.796425 ] } },
{ "type": "Feature", "properties": { "CMPLNT_NUM": "283920103", "ADDR_PCT_CD": 24, "BORO_NM": "MANHATTAN", "CMPLNT_FR_DT": "3/18/2024", "CMPLNT_FR_TM": "9:10:00", "CMPLNT_TO_DT": "3/18/2024", "CMPLNT_TO_TM": "9:17:00", "CRM_ATPT_CPTD_CD": "COMPLETED", "HADEVELOPT": "(null)", "JURIS_DESC": "N.Y. POLICE DEPT", "KY_CD": 348, "LAW_CAT_CD": "MISDEMEANOR", "LOC_OF_OCCUR_DESC": "(null)", "OFNS_DESC": "VEHICLE AND TRAFFIC LAWS", "PARKS_NM": "(null)", "PD_CD": 916.0, "PD_DESC": "LEAVING SCENE-ACCIDENT-PERSONA", "PREM_TYP_DESC": "STREET", "RPT_DT": "3/18/2024", "X_COORD_CD": 994926.0, "Y_COORD_CD": 229324.0, "Latitude": 40.79611095, "Longitude": -73.96144193000001, "Lat_Lon": "(40.79611095494556, -73.96144192977374)", "index_right": 0 }, "geometry": { "type": "Point", "coordinates": [ -73.96144193, 40.79611095 ] } },
{ "type": "Feature", "properties": { "CMPLNT_NUM": "285693750", "ADDR_PCT_CD": 26, "BORO_NM": "MANHATTAN", "CMPLNT_FR_DT": "4/20/2024", "CMPLNT_FR_TM": "21:55:00", "CMPLNT_TO_DT": "4/20/2024", "CMPLNT_TO_TM": "22:00:00", "CRM_ATPT_CPTD_CD": "COMPLETED", "HADEVELOPT": "(null)", "JURIS_DESC": "N.Y. POLICE DEPT", "KY_CD": 106, "LAW_CAT_CD": "FELONY", "LOC_OF_OCCUR_DESC": "(null)", "OFNS_DESC": "FELONY ASSAULT", "PARKS_NM": "(null)", "PD_CD": 109.0, "PD_DESC": "ASSAULT 2,1,UNCLASSIFIED", "PREM_TYP_DESC": "COLLEGE/UNIVERSITY", "RPT_DT": "4/21/2024", "X_COORD_CD": 995032.0, "Y_COORD_CD": 233226.0, "Latitude": 40.80682075, "Longitude": -73.96105283, "Lat_Lon": "(40.80682074721227, -73.96105282813934)", "index_right": 0 }, "geometry": { "type": "Point", "coordinates": [ -73.96105283, 40.80682075 ] } },
{ "type": "Feature", "properties": { "CMPLNT_NUM": "288856616", "ADDR_PCT_CD": 24, "BORO_NM": "MANHATTAN", "CMPLNT_FR_DT": "6/20/2024", "CMPLNT_FR_TM": "21:45:00", "CMPLNT_TO_DT": "6/20/2024", "CMPLNT_TO_TM": "21:49:00", "CRM_ATPT_CPTD_CD": "COMPLETED", "HADEVELOPT": "(null)", "JURIS_DESC": "N.Y. POLICE DEPT", "KY_CD": 106, "LAW_CAT_CD": "FELONY", "LOC_OF_OCCUR_DESC": "(null)", "OFNS_DESC": "FELONY ASSAULT", "PARKS_NM": "(null)", "PD_CD": 109.0, "PD_DESC": "ASSAULT 2,1,UNCLASSIFIED", "PREM_TYP_DESC": "STREET", "RPT_DT": "6/20/2024", "X_COORD_CD": 995026.0, "Y_COORD_CD": 231397.0, "Latitude": 40.80180065, "Longitude": -73.96107744, "Lat_Lon": "(40.80180065289685, -73.96107743720668)", "index_right": 0 }, "geometry": { "type": "Point", "coordinates": [ -73.96107744, 40.80180065 ] } },
{ "type": "Feature", "properties": { "CMPLNT_NUM": "285459507", "ADDR_PCT_CD": 24, "BORO_NM": "MANHATTAN", "CMPLNT_FR_DT": "4/16/2024", "CMPLNT_FR_TM": "4:00:00", "CMPLNT_TO_DT": "4/16/2024", "CMPLNT_TO_TM": "4:10:00", "CRM_ATPT_CPTD_CD": "COMPLETED", "HADEVELOPT": "(null)", "JURIS_DESC": "N.Y. POLICE DEPT", "KY_CD": 361, "LAW_CAT_CD": "MISDEMEANOR", "LOC_OF_OCCUR_DESC": "INSIDE", "OFNS_DESC": "OFF. AGNST PUB ORD SENSBLTY &", "PARKS_NM": "(null)", "PD_CD": 639.0, "PD_DESC": "AGGRAVATED HARASSMENT 2", "PREM_TYP_DESC": "RESIDENCE - APT. HOUSE", "RPT_DT": "4/16/2024", "X_COORD_CD": 994990.0, "Y_COORD_CD": 229438.0, "Latitude": 40.796425, "Longitude": -73.96121, "Lat_Lon": "(40.796425, -73.96121)", "index_right": 0 }, "geometry": { "type": "Point", "coordinates": [ -73.96121, 40.796425 ] } },
{ "type": "Feature", "properties": { "CMPLNT_NUM": "281420237", "ADDR_PCT_CD": 26, "BORO_NM": "MANHATTAN", "CMPLNT_FR_DT": "1/31/2024", "CMPLNT_FR_TM": "13:05:00", "CMPLNT_TO_DT": "1/31/2024", "CMPLNT_TO_TM": "13:10:00", "CRM_ATPT_CPTD_CD": "COMPLETED", "HADEVELOPT": "(null)", "JURIS_DESC": "N.Y. POLICE DEPT", "KY_CD": 109, "LAW_CAT_CD": "FELONY", "LOC_OF_OCCUR_DESC": "(null)", "OFNS_DESC": "GRAND LARCENY", "PARKS_NM": "(null)", "PD_CD": 404.0, "PD_DESC": "LARCENY,GRAND FROM PERSON,PERSONAL ELECTRONIC DEVICE(SNATCH)", "PREM_TYP_DESC": "STREET", "RPT_DT": "1/31/2024", "X_COORD_CD": 995032.0, "Y_COORD_CD": 233226.0, "Latitude": 40.80682075, "Longitude": -73.96105283, "Lat_Lon": "(40.80682074721227, -73.96105282813934)", "index_right": 0 }, "geometry": { "type": "Point", "coordinates": [ -73.96105283, 40.80682075 ] } },
{ "type": "Feature", "properties": { "CMPLNT_NUM": "281665652", "ADDR_PCT_CD": 26, "BORO_NM": "MANHATTAN", "CMPLNT_FR_DT": "2/4/2024", "CMPLNT_FR_TM": "21:50:00", "CMPLNT_TO_DT": "2/4/2024", "CMPLNT_TO_TM": "21:51:00", "CRM_ATPT_CPTD_CD": "COMPLETED", "HADEVELOPT": "(null)", "JURIS_DESC": "N.Y. POLICE DEPT", "KY_CD": 109, "LAW_CAT_CD": "FELONY", "LOC_OF_OCCUR_DESC": "(null)", "OFNS_DESC": "GRAND LARCENY", "PARKS_NM": "(null)", "PD_CD": 417.0, "PD_DESC": "LARCENY,GRAND FROM PERSON,PURS", "PREM_TYP_DESC": "STREET", "RPT_DT": "2/4/2024", "X_COORD_CD": 995026.0, "Y_COORD_CD": 231397.0, "Latitude": 40.80180065, "Longitude": -73.96107744, "Lat_Lon": "(40.80180065289685, -73.96107743720668)", "index_right": 0 }, "geometry": { "type": "Point", "coordinates": [ -73.96107744, 40.80180065 ] } },
{ "type": "Feature", "properties": { "CMPLNT_NUM": "288376741", "ADDR_PCT_CD": 24, "BORO_NM": "MANHATTAN", "CMPLNT_FR_DT": "6/12/2024", "CMPLNT_FR_TM": "8:22:00", "CMPLNT_TO_DT": "6/12/2024", "CMPLNT_TO_TM": "8:23:00", "CRM_ATPT_CPTD_CD": "COMPLETED", "HADEVELOPT": "(null)", "JURIS_DESC": "N.Y. POLICE DEPT", "KY_CD": 348, "LAW_CAT_CD": "MISDEMEANOR", "LOC_OF_OCCUR_DESC": "(null)", "OFNS_DESC": "VEHICLE AND TRAFFIC LAWS", "PARKS_NM": "(null)", "PD_CD": 916.0, "PD_DESC": "LEAVING SCENE-ACCIDENT-PERSONA", "PREM_TYP_DESC": "STREET", "RPT_DT": "6/12/2024", "X_COORD_CD": 995422.0, "Y_COORD_CD": 231162.0, "Latitude": 40.80115515, "Longitude": -73.95964749, "Lat_Lon": "(40.801155150457596, -73.95964748925182)", "index_right": 0 }, "geometry": { "type": "Point", "coordinates": [ -73.95964749, 40.80115515 ] } },
{ "type": "Feature", "properties": { "CMPLNT_NUM": "281207127", "ADDR_PCT_CD": 26, "BORO_NM": "MANHATTAN", "CMPLNT_FR_DT": "1/27/2024", "CMPLNT_FR_TM": "8:00:00", "CMPLNT_TO_DT": "1/27/2024", "CMPLNT_TO_TM": "8:30:00", "CRM_ATPT_CPTD_CD": "COMPLETED", "HADEVELOPT": "(null)", "JURIS_DESC": "N.Y. POLICE DEPT", "KY_CD": 361, "LAW_CAT_CD": "MISDEMEANOR", "LOC_OF_OCCUR_DESC": "INSIDE", "OFNS_DESC": "OFF. AGNST PUB ORD SENSBLTY &", "PARKS_NM": "(null)", "PD_CD": 639.0, "PD_DESC": "AGGRAVATED HARASSMENT 2", "PREM_TYP_DESC": "RESIDENCE - APT. HOUSE", "RPT_DT": "1/27/2024", "X_COORD_CD": 995435.0, "Y_COORD_CD": 232844.0, "Latitude": 40.805774, "Longitude": -73.959594, "Lat_Lon": "(40.805774, -73.959594)", "index_right": 0 }, "geometry": { "type": "Point", "coordinates": [ -73.959594, 40.805774 ] } },
{ "type": "Feature", "properties": { "CMPLNT_NUM": "289119150", "ADDR_PCT_CD": 26, "BORO_NM": "MANHATTAN", "CMPLNT_FR_DT": "6/26/2024", "CMPLNT_FR_TM": "6:30:00", "CMPLNT_TO_DT": "6/26/2024", "CMPLNT_TO_TM": "6:34:00", "CRM_ATPT_CPTD_CD": "COMPLETED", "HADEVELOPT": "(null)", "JURIS_DESC": "N.Y. POLICE DEPT", "KY_CD": 344, "LAW_CAT_CD": "MISDEMEANOR", "LOC_OF_OCCUR_DESC": "(null)", "OFNS_DESC": "ASSAULT 3 & RELATED OFFENSES", "PARKS_NM": "(null)", "PD_CD": 113.0, "PD_DESC": "MENACING,UNCLASSIFIED", "PREM_TYP_DESC": "PARK/PLAYGROUND", "RPT_DT": "6/26/2024", "X_COORD_CD": 995422.0, "Y_COORD_CD": 231162.0, "Latitude": 40.80115515, "Longitude": -73.95964749, "Lat_Lon": "(40.801155150457596, -73.95964748925182)", "index_right": 0 }, "geometry": { "type": "Point", "coordinates": [ -73.95964749, 40.80115515 ] } },
{ "type": "Feature", "properties": { "CMPLNT_NUM": "284588498", "ADDR_PCT_CD": 24, "BORO_NM": "MANHATTAN", "CMPLNT_FR_DT": "3/31/2024", "CMPLNT_FR_TM": "21:55:00", "CMPLNT_TO_DT": "3/31/2024", "CMPLNT_TO_TM": "22:00:00", "CRM_ATPT_CPTD_CD": "COMPLETED", "HADEVELOPT": "(null)", "JURIS_DESC": "N.Y. POLICE DEPT", "KY_CD": 113, "LAW_CAT_CD": "FELONY", "LOC_OF_OCCUR_DESC": "FRONT OF", "OFNS_DESC": "FORGERY", "PARKS_NM": "(null)", "PD_CD": 725.0, "PD_DESC": "FORGERY,M.V. REGISTRATION", "PREM_TYP_DESC": "STREET", "RPT_DT": "3/31/2024", "X_COORD_CD": 995643.0, "Y_COORD_CD": 230619.0, "Latitude": 40.799665, "Longitude": -73.958848, "Lat_Lon": "(40.799665, -73.958848)", "index_right": 0 }, "geometry": { "type": "Point", "coordinates": [ -73.958848, 40.799665 ] } },
{ "type": "Feature", "properties": { "CMPLNT_NUM": "285907011", "ADDR_PCT_CD": 26, "BORO_NM": "MANHATTAN", "CMPLNT_FR_DT": "4/25/2024", "CMPLNT_FR_TM": "13:00:00", "CMPLNT_TO_DT": "4/25/2024", "CMPLNT_TO_TM": "13:05:00", "CRM_ATPT_CPTD_CD": "COMPLETED", "HADEVELOPT": "(null)", "JURIS_DESC": "N.Y. POLICE DEPT", "KY_CD": 106, "LAW_CAT_CD": "FELONY", "LOC_OF_OCCUR_DESC": "(null)", "OFNS_DESC": "FELONY ASSAULT", "PARKS_NM": "(null)", "PD_CD": 109.0, "PD_DESC": "ASSAULT 2,1,UNCLASSIFIED", "PREM_TYP_DESC": "STREET", "RPT_DT": "4/25/2024", "X_COORD_CD": 995540.0, "Y_COORD_CD": 234144.0, "Latitude": 40.80933977, "Longitude": -73.95921627, "Lat_Lon": "(40.80933976847623, -73.95921626658182)", "index_right": 0 }, "geometry": { "type": "Point", "coordinates": [ -73.95921627, 40.80933977 ] } },
{ "type": "Feature", "properties": { "CMPLNT_NUM": "280751491", "ADDR_PCT_CD": 26, "BORO_NM": "MANHATTAN", "CMPLNT_FR_DT": "1/18/2024", "CMPLNT_FR_TM": "18:25:00", "CMPLNT_TO_DT": "1/18/2024", "CMPLNT_TO_TM": "18:30:00", "CRM_ATPT_CPTD_CD": "COMPLETED", "HADEVELOPT": "(null)", "JURIS_DESC": "N.Y. POLICE DEPT", "KY_CD": 109, "LAW_CAT_CD": "FELONY", "LOC_OF_OCCUR_DESC": "(null)", "OFNS_DESC": "GRAND LARCENY", "PARKS_NM": "(null)", "PD_CD": 404.0, "PD_DESC": "LARCENY,GRAND FROM PERSON,PERSONAL ELECTRONIC DEVICE(SNATCH)", "PREM_TYP_DESC": "STREET", "RPT_DT": "1/18/2024", "X_COORD_CD": 995294.0, "Y_COORD_CD": 233700.0, "Latitude": 40.80812142, "Longitude": -73.96010564, "Lat_Lon": "(40.80812142247918, -73.96010564159721)", "index_right": 0 }, "geometry": { "type": "Point", "coordinates": [ -73.96010564, 40.80812142 ] } },
{ "type": "Feature", "properties": { "CMPLNT_NUM": "285747091", "ADDR_PCT_CD": 24, "BORO_NM": "MANHATTAN", "CMPLNT_FR_DT": "4/22/2024", "CMPLNT_FR_TM": "19:50:00", "CMPLNT_TO_DT": "4/22/2024", "CMPLNT_TO_TM": "19:55:00", "CRM_ATPT_CPTD_CD": "COMPLETED", "HADEVELOPT": "(null)", "JURIS_DESC": "N.Y. POLICE DEPT", "KY_CD": 106, "LAW_CAT_CD": "FELONY", "LOC_OF_OCCUR_DESC": "(null)", "OFNS_DESC": "FELONY ASSAULT", "PARKS_NM": "(null)", "PD_CD": 109.0, "PD_DESC": "ASSAULT 2,1,UNCLASSIFIED", "PREM_TYP_DESC": "BUS (NYC TRANSIT)", "RPT_DT": "4/22/2024", "X_COORD_CD": 995317.0, "Y_COORD_CD": 230026.0, "Latitude": 40.79803727, "Longitude": -73.96002861, "Lat_Lon": "(40.79803727291093, -73.9600286144252)", "index_right": 0 }, "geometry": { "type": "Point", "coordinates": [ -73.96002861, 40.79803727 ] } },
{ "type": "Feature", "properties": { "CMPLNT_NUM": "286025350", "ADDR_PCT_CD": 24, "BORO_NM": "MANHATTAN", "CMPLNT_FR_DT": "4/28/2024", "CMPLNT_FR_TM": "3:00:00", "CMPLNT_TO_DT": "4/28/2024", "CMPLNT_TO_TM": "3:11:00", "CRM_ATPT_CPTD_CD": "COMPLETED", "HADEVELOPT": "(null)", "JURIS_DESC": "N.Y. POLICE DEPT", "KY_CD": 106, "LAW_CAT_CD": "FELONY", "LOC_OF_OCCUR_DESC": "(null)", "OFNS_DESC": "FELONY ASSAULT", "PARKS_NM": "(null)", "PD_CD": 109.0, "PD_DESC": "ASSAULT 2,1,UNCLASSIFIED", "PREM_TYP_DESC": "STREET", "RPT_DT": "4/28/2024", "X_COORD_CD": 995707.0, "Y_COORD_CD": 230733.0, "Latitude": 40.7999773, "Longitude": -73.95861882, "Lat_Lon": "(40.79997729788985, -73.95861882061581)", "index_right": 0 }, "geometry": { "type": "Point", "coordinates": [ -73.95861882, 40.7999773 ] } },
{ "type": "Feature", "properties": { "CMPLNT_NUM": "284586459", "ADDR_PCT_CD": 22, "BORO_NM": "MANHATTAN", "CMPLNT_FR_DT": "3/31/2024", "CMPLNT_FR_TM": "19:28:00", "CMPLNT_TO_DT": "3/31/2024", "CMPLNT_TO_TM": "19:30:00", "CRM_ATPT_CPTD_CD": "COMPLETED", "HADEVELOPT": "(null)", "JURIS_DESC": "N.Y. POLICE DEPT", "KY_CD": 106, "LAW_CAT_CD": "FELONY", "LOC_OF_OCCUR_DESC": "(null)", "OFNS_DESC": "FELONY ASSAULT", "PARKS_NM": "(null)", "PD_CD": 109.0, "PD_DESC": "ASSAULT 2,1,UNCLASSIFIED", "PREM_TYP_DESC": "STREET", "RPT_DT": "3/31/2024", "X_COORD_CD": 995636.0, "Y_COORD_CD": 224994.0, "Latitude": 40.78422538, "Longitude": -73.95888499, "Lat_Lon": "(40.78422538392341, -73.95888499247647)", "index_right": 0 }, "geometry": { "type": "Point", "coordinates": [ -73.95888499, 40.78422538 ] } },
{ "type": "Feature", "properties": { "CMPLNT_NUM": "286327455", "ADDR_PCT_CD": 26, "BORO_NM": "MANHATTAN", "CMPLNT_FR_DT": "5/3/2024", "CMPLNT_FR_TM": "18:30:00", "CMPLNT_TO_DT": "5/3/2024", "CMPLNT_TO_TM": "18:40:00", "CRM_ATPT_CPTD_CD": "COMPLETED", "HADEVELOPT": "(null)", "JURIS_DESC": "N.Y. POLICE DEPT", "KY_CD": 341, "LAW_CAT_CD": "MISDEMEANOR", "LOC_OF_OCCUR_DESC": "(null)", "OFNS_DESC": "PETIT LARCENY", "PARKS_NM": "(null)", "PD_CD": 313.0, "PD_DESC": "LARCENY,PETIT BY FALSE PROMISE", "PREM_TYP_DESC": "TAXI (LIVERY LICENSED)", "RPT_DT": "5/3/2024", "X_COORD_CD": 995236.0, "Y_COORD_CD": 232195.0, "Latitude": 40.80399069, "Longitude": -73.96031762, "Lat_Lon": "(40.803990685157046, -73.96031761838267)", "index_right": 0 }, "geometry": { "type": "Point", "coordinates": [ -73.96031762, 40.80399069 ] } },
{ "type": "Feature", "properties": { "CMPLNT_NUM": "282936895", "ADDR_PCT_CD": 24, "BORO_NM": "MANHATTAN", "CMPLNT_FR_DT": "2/28/2024", "CMPLNT_FR_TM": "17:30:00", "CMPLNT_TO_DT": "2/28/2024", "CMPLNT_TO_TM": "17:38:00", "CRM_ATPT_CPTD_CD": "COMPLETED", "HADEVELOPT": "(null)", "JURIS_DESC": "N.Y. POLICE DEPT", "KY_CD": 113, "LAW_CAT_CD": "FELONY", "LOC_OF_OCCUR_DESC": "(null)", "OFNS_DESC": "FORGERY", "PARKS_NM": "(null)", "PD_CD": 725.0, "PD_DESC": "FORGERY,M.V. REGISTRATION", "PREM_TYP_DESC": "STREET", "RPT_DT": "2/28/2024", "X_COORD_CD": 995707.0, "Y_COORD_CD": 230733.0, "Latitude": 40.7999773, "Longitude": -73.95861882, "Lat_Lon": "(40.79997729788985, -73.95861882061581)", "index_right": 0 }, "geometry": { "type": "Point", "coordinates": [ -73.95861882, 40.7999773 ] } },
{ "type": "Feature", "properties": { "CMPLNT_NUM": "280733084", "ADDR_PCT_CD": 24, "BORO_NM": "MANHATTAN", "CMPLNT_FR_DT": "1/18/2024", "CMPLNT_FR_TM": "16:51:00", "CMPLNT_TO_DT": "1/18/2024", "CMPLNT_TO_TM": "16:57:00", "CRM_ATPT_CPTD_CD": "COMPLETED", "HADEVELOPT": "(null)", "JURIS_DESC": "N.Y. POLICE DEPT", "KY_CD": 113, "LAW_CAT_CD": "FELONY", "LOC_OF_OCCUR_DESC": "(null)", "OFNS_DESC": "FORGERY", "PARKS_NM": "(null)", "PD_CD": 725.0, "PD_DESC": "FORGERY,M.V. REGISTRATION", "PREM_TYP_DESC": "STREET", "RPT_DT": "1/18/2024", "X_COORD_CD": 995422.0, "Y_COORD_CD": 231162.0, "Latitude": 40.80115515, "Longitude": -73.95964749, "Lat_Lon": "(40.801155150457596, -73.95964748925182)", "index_right": 0 }, "geometry": { "type": "Point", "coordinates": [ -73.95964749, 40.80115515 ] } },
{ "type": "Feature", "properties": { "CMPLNT_NUM": "282083060", "ADDR_PCT_CD": 26, "BORO_NM": "MANHATTAN", "CMPLNT_FR_DT": "2/10/2024", "CMPLNT_FR_TM": "11:00:00", "CMPLNT_TO_DT": "2/10/2024", "CMPLNT_TO_TM": "12:00:00", "CRM_ATPT_CPTD_CD": "COMPLETED", "HADEVELOPT": "(null)", "JURIS_DESC": "N.Y. POLICE DEPT", "KY_CD": 341, "LAW_CAT_CD": "MISDEMEANOR", "LOC_OF_OCCUR_DESC": "INSIDE", "OFNS_DESC": "PETIT LARCENY", "PARKS_NM": "(null)", "PD_CD": 305.0, "PD_DESC": "LARCENY,PETIT BY CREDIT CARD U", "PREM_TYP_DESC": "RESIDENCE-HOUSE", "RPT_DT": "2/10/2024", "X_COORD_CD": 995435.0, "Y_COORD_CD": 232844.0, "Latitude": 40.805774, "Longitude": -73.959594, "Lat_Lon": "(40.805774, -73.959594)", "index_right": 0 }, "geometry": { "type": "Point", "coordinates": [ -73.959594, 40.805774 ] } },
{ "type": "Feature", "properties": { "CMPLNT_NUM": "284298420", "ADDR_PCT_CD": 26, "BORO_NM": "MANHATTAN", "CMPLNT_FR_DT": "3/25/2024", "CMPLNT_FR_TM": "13:50:00", "CMPLNT_TO_DT": "3/25/2024", "CMPLNT_TO_TM": "13:58:00", "CRM_ATPT_CPTD_CD": "COMPLETED", "HADEVELOPT": "(null)", "JURIS_DESC": "N.Y. POLICE DEPT", "KY_CD": 105, "LAW_CAT_CD": "FELONY", "LOC_OF_OCCUR_DESC": "(null)", "OFNS_DESC": "ROBBERY", "PARKS_NM": "(null)", "PD_CD": 397.0, "PD_DESC": "ROBBERY,OPEN AREA UNCLASSIFIED", "PREM_TYP_DESC": "COLLEGE/UNIVERSITY", "RPT_DT": "3/25/2024", "X_COORD_CD": 995032.0, "Y_COORD_CD": 233226.0, "Latitude": 40.80682075, "Longitude": -73.96105283, "Lat_Lon": "(40.80682074721227, -73.96105282813934)", "index_right": 0 }, "geometry": { "type": "Point", "coordinates": [ -73.96105283, 40.80682075 ] } },
{ "type": "Feature", "properties": { "CMPLNT_NUM": "283763401", "ADDR_PCT_CD": 26, "BORO_NM": "MANHATTAN", "CMPLNT_FR_DT": "3/14/2024", "CMPLNT_FR_TM": "17:50:00", "CMPLNT_TO_DT": "3/14/2024", "CMPLNT_TO_TM": "17:56:00", "CRM_ATPT_CPTD_CD": "COMPLETED", "HADEVELOPT": "(null)", "JURIS_DESC": "N.Y. POLICE DEPT", "KY_CD": 105, "LAW_CAT_CD": "FELONY", "LOC_OF_OCCUR_DESC": "(null)", "OFNS_DESC": "ROBBERY", "PARKS_NM": "(null)", "PD_CD": 397.0, "PD_DESC": "ROBBERY,OPEN AREA UNCLASSIFIED", "PREM_TYP_DESC": "PARK/PLAYGROUND", "RPT_DT": "3/14/2024", "X_COORD_CD": 995026.0, "Y_COORD_CD": 231397.0, "Latitude": 40.80180065, "Longitude": -73.96107744, "Lat_Lon": "(40.80180065289685, -73.96107743720668)", "index_right": 0 }, "geometry": { "type": "Point", "coordinates": [ -73.96107744, 40.80180065 ] } },
{ "type": "Feature", "properties": { "CMPLNT_NUM": "280921547", "ADDR_PCT_CD": 24, "BORO_NM": "MANHATTAN", "CMPLNT_FR_DT": "1/22/2024", "CMPLNT_FR_TM": "16:58:00", "CMPLNT_TO_DT": "1/22/2024", "CMPLNT_TO_TM": "17:03:00", "CRM_ATPT_CPTD_CD": "COMPLETED", "HADEVELOPT": "(null)", "JURIS_DESC": "N.Y. POLICE DEPT", "KY_CD": 348, "LAW_CAT_CD": "MISDEMEANOR", "LOC_OF_OCCUR_DESC": "(null)", "OFNS_DESC": "VEHICLE AND TRAFFIC LAWS", "PARKS_NM": "(null)", "PD_CD": 922.0, "PD_DESC": "TRAFFIC,UNCLASSIFIED MISDEMEAN", "PREM_TYP_DESC": "STREET", "RPT_DT": "1/22/2024", "X_COORD_CD": 995026.0, "Y_COORD_CD": 231397.0, "Latitude": 40.80180065, "Longitude": -73.96107744, "Lat_Lon": "(40.80180065289685, -73.96107743720668)", "index_right": 0 }, "geometry": { "type": "Point", "coordinates": [ -73.96107744, 40.80180065 ] } },
{ "type": "Feature", "properties": { "CMPLNT_NUM": "285728481", "ADDR_PCT_CD": 26, "BORO_NM": "MANHATTAN", "CMPLNT_FR_DT": "4/21/2024", "CMPLNT_FR_TM": "11:30:00", "CMPLNT_TO_DT": "4/21/2024", "CMPLNT_TO_TM": "11:35:00", "CRM_ATPT_CPTD_CD": "COMPLETED", "HADEVELOPT": "(null)", "JURIS_DESC": "N.Y. POLICE DEPT", "KY_CD": 351, "LAW_CAT_CD": "MISDEMEANOR", "LOC_OF_OCCUR_DESC": "INSIDE", "OFNS_DESC": "CRIMINAL MISCHIEF & RELATED OF", "PARKS_NM": "(null)", "PD_CD": 259.0, "PD_DESC": "CRIMINAL MISCHIEF,UNCLASSIFIED 4", "PREM_TYP_DESC": "RESIDENCE - APT. HOUSE", "RPT_DT": "4/21/2024", "X_COORD_CD": 995130.0, "Y_COORD_CD": 231796.0, "Latitude": 40.802896, "Longitude": -73.960698, "Lat_Lon": "(40.802896, -73.960698)", "index_right": 0 }, "geometry": { "type": "Point", "coordinates": [ -73.960698, 40.802896 ] } },
{ "type": "Feature", "properties": { "CMPLNT_NUM": "279972484", "ADDR_PCT_CD": 24, "BORO_NM": "MANHATTAN", "CMPLNT_FR_DT": "1/1/2024", "CMPLNT_FR_TM": "20:45:00", "CMPLNT_TO_DT": "1/1/2024", "CMPLNT_TO_TM": "21:00:00", "CRM_ATPT_CPTD_CD": "ATTEMPTED", "HADEVELOPT": "(null)", "JURIS_DESC": "N.Y. POLICE DEPT", "KY_CD": 105, "LAW_CAT_CD": "FELONY", "LOC_OF_OCCUR_DESC": "(null)", "OFNS_DESC": "ROBBERY", "PARKS_NM": "(null)", "PD_CD": 397.0, "PD_DESC": "ROBBERY,OPEN AREA UNCLASSIFIED", "PREM_TYP_DESC": "STREET", "RPT_DT": "1/4/2024", "X_COORD_CD": 995707.0, "Y_COORD_CD": 230733.0, "Latitude": 40.7999773, "Longitude": -73.95861882, "Lat_Lon": "(40.79997729788985, -73.95861882061581)", "index_right": 0 }, "geometry": { "type": "Point", "coordinates": [ -73.95861882, 40.7999773 ] } },
{ "type": "Feature", "properties": { "CMPLNT_NUM": "285883349", "ADDR_PCT_CD": 28, "BORO_NM": "MANHATTAN", "CMPLNT_FR_DT": "4/25/2024", "CMPLNT_FR_TM": "2:04:00", "CMPLNT_TO_DT": "4/25/2024", "CMPLNT_TO_TM": "2:09:00", "CRM_ATPT_CPTD_CD": "ATTEMPTED", "HADEVELOPT": "(null)", "JURIS_DESC": "N.Y. POLICE DEPT", "KY_CD": 105, "LAW_CAT_CD": "FELONY", "LOC_OF_OCCUR_DESC": "FRONT OF", "OFNS_DESC": "ROBBERY", "PARKS_NM": "(null)", "PD_CD": 397.0, "PD_DESC": "ROBBERY,OPEN AREA UNCLASSIFIED", "PREM_TYP_DESC": "STREET", "RPT_DT": "4/25/2024", "X_COORD_CD": 995583.0, "Y_COORD_CD": 231074.0, "Latitude": 40.800913, "Longitude": -73.959064, "Lat_Lon": "(40.800913, -73.959064)", "index_right": 0 }, "geometry": { "type": "Point", "coordinates": [ -73.959064, 40.800913 ] } },
{ "type": "Feature", "properties": { "CMPLNT_NUM": "286510635", "ADDR_PCT_CD": 24, "BORO_NM": "MANHATTAN", "CMPLNT_FR_DT": "5/7/2024", "CMPLNT_FR_TM": "17:47:00", "CMPLNT_TO_DT": "5/7/2024", "CMPLNT_TO_TM": "21:20:00", "CRM_ATPT_CPTD_CD": "COMPLETED", "HADEVELOPT": "(null)", "JURIS_DESC": "N.Y. POLICE DEPT", "KY_CD": 351, "LAW_CAT_CD": "MISDEMEANOR", "LOC_OF_OCCUR_DESC": "(null)", "OFNS_DESC": "CRIMINAL MISCHIEF & RELATED OF", "PARKS_NM": "(null)", "PD_CD": 259.0, "PD_DESC": "CRIMINAL MISCHIEF,UNCLASSIFIED 4", "PREM_TYP_DESC": "STREET", "RPT_DT": "5/7/2024", "X_COORD_CD": 995707.0, "Y_COORD_CD": 230733.0, "Latitude": 40.7999773, "Longitude": -73.95861882, "Lat_Lon": "(40.79997729788985, -73.95861882061581)", "index_right": 0 }, "geometry": { "type": "Point", "coordinates": [ -73.95861882, 40.7999773 ] } },
{ "type": "Feature", "properties": { "CMPLNT_NUM": "285572098", "ADDR_PCT_CD": 26, "BORO_NM": "MANHATTAN", "CMPLNT_FR_DT": "4/18/2024", "CMPLNT_FR_TM": "19:40:00", "CMPLNT_TO_DT": "4/18/2024", "CMPLNT_TO_TM": "19:45:00", "CRM_ATPT_CPTD_CD": "COMPLETED", "HADEVELOPT": "(null)", "JURIS_DESC": "N.Y. POLICE DEPT", "KY_CD": 351, "LAW_CAT_CD": "MISDEMEANOR", "LOC_OF_OCCUR_DESC": "FRONT OF", "OFNS_DESC": "CRIMINAL MISCHIEF & RELATED OF", "PARKS_NM": "(null)", "PD_CD": 259.0, "PD_DESC": "CRIMINAL MISCHIEF,UNCLASSIFIED 4", "PREM_TYP_DESC": "COLLEGE/UNIVERSITY", "RPT_DT": "4/18/2024", "X_COORD_CD": 995162.0, "Y_COORD_CD": 233462.0, "Latitude": 40.807471, "Longitude": -73.96058, "Lat_Lon": "(40.807471, -73.96058)", "index_right": 0 }, "geometry": { "type": "Point", "coordinates": [ -73.96058, 40.807471 ] } },
{ "type": "Feature", "properties": { "CMPLNT_NUM": "285731565", "ADDR_PCT_CD": 26, "BORO_NM": "MANHATTAN", "CMPLNT_FR_DT": "4/20/2024", "CMPLNT_FR_TM": "16:00:00", "CMPLNT_TO_DT": "4/20/2024", "CMPLNT_TO_TM": "16:10:00", "CRM_ATPT_CPTD_CD": "COMPLETED", "HADEVELOPT": "(null)", "JURIS_DESC": "N.Y. POLICE DEPT", "KY_CD": 344, "LAW_CAT_CD": "MISDEMEANOR", "LOC_OF_OCCUR_DESC": "INSIDE", "OFNS_DESC": "ASSAULT 3 & RELATED OFFENSES", "PARKS_NM": "(null)", "PD_CD": 101.0, "PD_DESC": "ASSAULT 3", "PREM_TYP_DESC": "RESIDENCE - APT. HOUSE", "RPT_DT": "4/22/2024", "X_COORD_CD": 995130.0, "Y_COORD_CD": 231796.0, "Latitude": 40.802896, "Longitude": -73.960698, "Lat_Lon": "(40.802896, -73.960698)", "index_right": 0 }, "geometry": { "type": "Point", "coordinates": [ -73.960698, 40.802896 ] } },
{ "type": "Feature", "properties": { "CMPLNT_NUM": "283669849", "ADDR_PCT_CD": 26, "BORO_NM": "MANHATTAN", "CMPLNT_FR_DT": "2/17/2024", "CMPLNT_FR_TM": "20:35:00", "CMPLNT_TO_DT": null, "CMPLNT_TO_TM": "(null)", "CRM_ATPT_CPTD_CD": "COMPLETED", "HADEVELOPT": "(null)", "JURIS_DESC": "N.Y. POLICE DEPT", "KY_CD": 578, "LAW_CAT_CD": "VIOLATION", "LOC_OF_OCCUR_DESC": "INSIDE", "OFNS_DESC": "HARRASSMENT 2", "PARKS_NM": "(null)", "PD_CD": 638.0, "PD_DESC": "HARASSMENT,SUBD 3,4,5", "PREM_TYP_DESC": "RESIDENCE - APT. HOUSE", "RPT_DT": "3/13/2024", "X_COORD_CD": 995337.0, "Y_COORD_CD": 232588.0, "Latitude": 40.80507, "Longitude": -73.959951, "Lat_Lon": "(40.80507, -73.959951)", "index_right": 0 }, "geometry": { "type": "Point", "coordinates": [ -73.959951, 40.80507 ] } },
{ "type": "Feature", "properties": { "CMPLNT_NUM": "285692085", "ADDR_PCT_CD": 26, "BORO_NM": "MANHATTAN", "CMPLNT_FR_DT": "4/21/2024", "CMPLNT_FR_TM": "11:30:00", "CMPLNT_TO_DT": "4/21/2024", "CMPLNT_TO_TM": "11:35:00", "CRM_ATPT_CPTD_CD": "COMPLETED", "HADEVELOPT": "(null)", "JURIS_DESC": "N.Y. POLICE DEPT", "KY_CD": 578, "LAW_CAT_CD": "VIOLATION", "LOC_OF_OCCUR_DESC": "INSIDE", "OFNS_DESC": "HARRASSMENT 2", "PARKS_NM": "(null)", "PD_CD": 638.0, "PD_DESC": "HARASSMENT,SUBD 3,4,5", "PREM_TYP_DESC": "RESIDENCE - APT. HOUSE", "RPT_DT": "4/21/2024", "X_COORD_CD": 995130.0, "Y_COORD_CD": 231796.0, "Latitude": 40.802896, "Longitude": -73.960698, "Lat_Lon": "(40.802896, -73.960698)", "index_right": 0 }, "geometry": { "type": "Point", "coordinates": [ -73.960698, 40.802896 ] } },
{ "type": "Feature", "properties": { "CMPLNT_NUM": "286351280", "ADDR_PCT_CD": 28, "BORO_NM": "MANHATTAN", "CMPLNT_FR_DT": "5/1/2024", "CMPLNT_FR_TM": "0:00:00", "CMPLNT_TO_DT": "5/1/2024", "CMPLNT_TO_TM": "0:01:00", "CRM_ATPT_CPTD_CD": "COMPLETED", "HADEVELOPT": "(null)", "JURIS_DESC": "N.Y. POLICE DEPT", "KY_CD": 344, "LAW_CAT_CD": "MISDEMEANOR", "LOC_OF_OCCUR_DESC": "FRONT OF", "OFNS_DESC": "ASSAULT 3 & RELATED OFFENSES", "PARKS_NM": "(null)", "PD_CD": 101.0, "PD_DESC": "ASSAULT 3", "PREM_TYP_DESC": "STREET", "RPT_DT": "5/3/2024", "X_COORD_CD": 995583.0, "Y_COORD_CD": 231074.0, "Latitude": 40.800913, "Longitude": -73.959064, "Lat_Lon": "(40.800913, -73.959064)", "index_right": 0 }, "geometry": { "type": "Point", "coordinates": [ -73.959064, 40.800913 ] } },
{ "type": "Feature", "properties": { "CMPLNT_NUM": "281209643", "ADDR_PCT_CD": 26, "BORO_NM": "MANHATTAN", "CMPLNT_FR_DT": "1/26/2024", "CMPLNT_FR_TM": "15:27:00", "CMPLNT_TO_DT": "1/26/2024", "CMPLNT_TO_TM": "15:46:00", "CRM_ATPT_CPTD_CD": "COMPLETED", "HADEVELOPT": "(null)", "JURIS_DESC": "N.Y. POLICE DEPT", "KY_CD": 344, "LAW_CAT_CD": "MISDEMEANOR", "LOC_OF_OCCUR_DESC": "INSIDE", "OFNS_DESC": "ASSAULT 3 & RELATED OFFENSES", "PARKS_NM": "(null)", "PD_CD": 101.0, "PD_DESC": "ASSAULT 3", "PREM_TYP_DESC": "RESIDENCE - APT. HOUSE", "RPT_DT": "1/26/2024", "X_COORD_CD": 995435.0, "Y_COORD_CD": 232844.0, "Latitude": 40.805774, "Longitude": -73.959594, "Lat_Lon": "(40.805774, -73.959594)", "index_right": 0 }, "geometry": { "type": "Point", "coordinates": [ -73.959594, 40.805774 ] } },
{ "type": "Feature", "properties": { "CMPLNT_NUM": "284594378", "ADDR_PCT_CD": 24, "BORO_NM": "MANHATTAN", "CMPLNT_FR_DT": "4/1/2024", "CMPLNT_FR_TM": "3:05:00", "CMPLNT_TO_DT": "4/1/2024", "CMPLNT_TO_TM": "3:15:00", "CRM_ATPT_CPTD_CD": "COMPLETED", "HADEVELOPT": "(null)", "JURIS_DESC": "N.Y. POLICE DEPT", "KY_CD": 344, "LAW_CAT_CD": "MISDEMEANOR", "LOC_OF_OCCUR_DESC": "FRONT OF", "OFNS_DESC": "ASSAULT 3 & RELATED OFFENSES", "PARKS_NM": "(null)", "PD_CD": 101.0, "PD_DESC": "ASSAULT 3", "PREM_TYP_DESC": "STREET", "RPT_DT": "4/1/2024", "X_COORD_CD": 995384.0, "Y_COORD_CD": 230150.0, "Latitude": 40.798378, "Longitude": -73.959783, "Lat_Lon": "(40.798378, -73.959783)", "index_right": 0 }, "geometry": { "type": "Point", "coordinates": [ -73.959783, 40.798378 ] } },
{ "type": "Feature", "properties": { "CMPLNT_NUM": "287833369", "ADDR_PCT_CD": 24, "BORO_NM": "MANHATTAN", "CMPLNT_FR_DT": "6/2/2024", "CMPLNT_FR_TM": "12:35:00", "CMPLNT_TO_DT": "6/2/2024", "CMPLNT_TO_TM": "13:00:00", "CRM_ATPT_CPTD_CD": "COMPLETED", "HADEVELOPT": "(null)", "JURIS_DESC": "N.Y. POLICE DEPT", "KY_CD": 344, "LAW_CAT_CD": "MISDEMEANOR", "LOC_OF_OCCUR_DESC": "INSIDE", "OFNS_DESC": "ASSAULT 3 & RELATED OFFENSES", "PARKS_NM": "(null)", "PD_CD": 101.0, "PD_DESC": "ASSAULT 3", "PREM_TYP_DESC": "RESIDENCE - APT. HOUSE", "RPT_DT": "6/2/2024", "X_COORD_CD": 995224.0, "Y_COORD_CD": 231279.0, "Latitude": 40.801478, "Longitude": -73.960362, "Lat_Lon": "(40.801478, -73.960362)", "index_right": 0 }, "geometry": { "type": "Point", "coordinates": [ -73.960362, 40.801478 ] } },
{ "type": "Feature", "properties": { "CMPLNT_NUM": "285569080", "ADDR_PCT_CD": 26, "BORO_NM": "MANHATTAN", "CMPLNT_FR_DT": "4/18/2024", "CMPLNT_FR_TM": "18:00:00", "CMPLNT_TO_DT": "4/18/2024", "CMPLNT_TO_TM": "21:10:00", "CRM_ATPT_CPTD_CD": "COMPLETED", "HADEVELOPT": "(null)", "JURIS_DESC": "N.Y. POLICE DEPT", "KY_CD": 351, "LAW_CAT_CD": "MISDEMEANOR", "LOC_OF_OCCUR_DESC": "(null)", "OFNS_DESC": "CRIMINAL MISCHIEF & RELATED OF", "PARKS_NM": "(null)", "PD_CD": 258.0, "PD_DESC": "CRIMINAL MISCHIEF 4TH, GRAFFIT", "PREM_TYP_DESC": "STREET", "RPT_DT": "4/18/2024", "X_COORD_CD": 995032.0, "Y_COORD_CD": 233226.0, "Latitude": 40.80682075, "Longitude": -73.96105283, "Lat_Lon": "(40.80682074721227, -73.96105282813934)", "index_right": 0 }, "geometry": { "type": "Point", "coordinates": [ -73.96105283, 40.80682075 ] } },
{ "type": "Feature", "properties": { "CMPLNT_NUM": "282754501", "ADDR_PCT_CD": 28, "BORO_NM": "MANHATTAN", "CMPLNT_FR_DT": "2/25/2024", "CMPLNT_FR_TM": "3:52:00", "CMPLNT_TO_DT": "2/25/2024", "CMPLNT_TO_TM": "3:58:00", "CRM_ATPT_CPTD_CD": "COMPLETED", "HADEVELOPT": "(null)", "JURIS_DESC": "N.Y. POLICE DEPT", "KY_CD": 107, "LAW_CAT_CD": "FELONY", "LOC_OF_OCCUR_DESC": "INSIDE", "OFNS_DESC": "BURGLARY", "PARKS_NM": "(null)", "PD_CD": 223.0, "PD_DESC": "BURGLARY,RESIDENCE,NIGHT", "PREM_TYP_DESC": "RESIDENCE - APT. HOUSE", "RPT_DT": "2/25/2024", "X_COORD_CD": 995583.0, "Y_COORD_CD": 231074.0, "Latitude": 40.800913, "Longitude": -73.959064, "Lat_Lon": "(40.800913, -73.959064)", "index_right": 0 }, "geometry": { "type": "Point", "coordinates": [ -73.959064, 40.800913 ] } },
{ "type": "Feature", "properties": { "CMPLNT_NUM": "286925901", "ADDR_PCT_CD": 26, "BORO_NM": "MANHATTAN", "CMPLNT_FR_DT": "5/12/2024", "CMPLNT_FR_TM": "2:00:00", "CMPLNT_TO_DT": "5/12/2024", "CMPLNT_TO_TM": "2:05:00", "CRM_ATPT_CPTD_CD": "COMPLETED", "HADEVELOPT": "(null)", "JURIS_DESC": "N.Y. POLICE DEPT", "KY_CD": 578, "LAW_CAT_CD": "VIOLATION", "LOC_OF_OCCUR_DESC": "INSIDE", "OFNS_DESC": "HARRASSMENT 2", "PARKS_NM": "(null)", "PD_CD": 638.0, "PD_DESC": "HARASSMENT,SUBD 3,4,5", "PREM_TYP_DESC": "RESIDENCE - APT. HOUSE", "RPT_DT": "5/12/2024", "X_COORD_CD": 995269.0, "Y_COORD_CD": 232325.0, "Latitude": 40.804349, "Longitude": -73.960196, "Lat_Lon": "(40.804349, -73.960196)", "index_right": 0 }, "geometry": { "type": "Point", "coordinates": [ -73.960196, 40.804349 ] } },
{ "type": "Feature", "properties": { "CMPLNT_NUM": "283139373", "ADDR_PCT_CD": 24, "BORO_NM": "MANHATTAN", "CMPLNT_FR_DT": "3/3/2024", "CMPLNT_FR_TM": "21:25:00", "CMPLNT_TO_DT": "3/3/2024", "CMPLNT_TO_TM": "21:30:00", "CRM_ATPT_CPTD_CD": "COMPLETED", "HADEVELOPT": "(null)", "JURIS_DESC": "N.Y. POLICE DEPT", "KY_CD": 344, "LAW_CAT_CD": "MISDEMEANOR", "LOC_OF_OCCUR_DESC": "INSIDE", "OFNS_DESC": "ASSAULT 3 & RELATED OFFENSES", "PARKS_NM": "(null)", "PD_CD": 101.0, "PD_DESC": "ASSAULT 3", "PREM_TYP_DESC": "RESIDENCE - APT. HOUSE", "RPT_DT": "3/3/2024", "X_COORD_CD": 995643.0, "Y_COORD_CD": 230619.0, "Latitude": 40.799665, "Longitude": -73.958848, "Lat_Lon": "(40.799665, -73.958848)", "index_right": 0 }, "geometry": { "type": "Point", "coordinates": [ -73.958848, 40.799665 ] } },
{ "type": "Feature", "properties": { "CMPLNT_NUM": "286845568", "ADDR_PCT_CD": 24, "BORO_NM": "MANHATTAN", "CMPLNT_FR_DT": "5/13/2024", "CMPLNT_FR_TM": "8:07:00", "CMPLNT_TO_DT": "5/13/2024", "CMPLNT_TO_TM": "8:15:00", "CRM_ATPT_CPTD_CD": "COMPLETED", "HADEVELOPT": "(null)", "JURIS_DESC": "N.Y. POLICE DEPT", "KY_CD": 578, "LAW_CAT_CD": "VIOLATION", "LOC_OF_OCCUR_DESC": "INSIDE", "OFNS_DESC": "HARRASSMENT 2", "PARKS_NM": "(null)", "PD_CD": 638.0, "PD_DESC": "HARASSMENT,SUBD 3,4,5", "PREM_TYP_DESC": "RESIDENCE - APT. HOUSE", "RPT_DT": "5/14/2024", "X_COORD_CD": 995384.0, "Y_COORD_CD": 230150.0, "Latitude": 40.798378, "Longitude": -73.959783, "Lat_Lon": "(40.798378, -73.959783)", "index_right": 0 }, "geometry": { "type": "Point", "coordinates": [ -73.959783, 40.798378 ] } },
{ "type": "Feature", "properties": { "CMPLNT_NUM": "285883348", "ADDR_PCT_CD": 26, "BORO_NM": "MANHATTAN", "CMPLNT_FR_DT": "4/23/2024", "CMPLNT_FR_TM": "18:22:00", "CMPLNT_TO_DT": "4/23/2024", "CMPLNT_TO_TM": "18:33:00", "CRM_ATPT_CPTD_CD": "COMPLETED", "HADEVELOPT": "(null)", "JURIS_DESC": "N.Y. POLICE DEPT", "KY_CD": 578, "LAW_CAT_CD": "VIOLATION", "LOC_OF_OCCUR_DESC": "(null)", "OFNS_DESC": "HARRASSMENT 2", "PARKS_NM": "(null)", "PD_CD": 638.0, "PD_DESC": "HARASSMENT,SUBD 3,4,5", "PREM_TYP_DESC": "STREET", "RPT_DT": "4/24/2024", "X_COORD_CD": 995422.0, "Y_COORD_CD": 231162.0, "Latitude": 40.80115515, "Longitude": -73.95964749, "Lat_Lon": "(40.801155150457596, -73.95964748925182)", "index_right": 0 }, "geometry": { "type": "Point", "coordinates": [ -73.95964749, 40.80115515 ] } },
{ "type": "Feature", "properties": { "CMPLNT_NUM": "282743647", "ADDR_PCT_CD": 28, "BORO_NM": "MANHATTAN", "CMPLNT_FR_DT": "2/24/2024", "CMPLNT_FR_TM": "23:20:00", "CMPLNT_TO_DT": "2/24/2024", "CMPLNT_TO_TM": "23:24:00", "CRM_ATPT_CPTD_CD": "COMPLETED", "HADEVELOPT": "(null)", "JURIS_DESC": "N.Y. POLICE DEPT", "KY_CD": 107, "LAW_CAT_CD": "FELONY", "LOC_OF_OCCUR_DESC": "INSIDE", "OFNS_DESC": "BURGLARY", "PARKS_NM": "(null)", "PD_CD": 223.0, "PD_DESC": "BURGLARY,RESIDENCE,NIGHT", "PREM_TYP_DESC": "RESIDENCE - APT. HOUSE", "RPT_DT": "2/25/2024", "X_COORD_CD": 995583.0, "Y_COORD_CD": 231074.0, "Latitude": 40.800913, "Longitude": -73.959064, "Lat_Lon": "(40.800913, -73.959064)", "index_right": 0 }, "geometry": { "type": "Point", "coordinates": [ -73.959064, 40.800913 ] } },
{ "type": "Feature", "properties": { "CMPLNT_NUM": "284078864", "ADDR_PCT_CD": 26, "BORO_NM": "MANHATTAN", "CMPLNT_FR_DT": "3/20/2024", "CMPLNT_FR_TM": "22:00:00", "CMPLNT_TO_DT": "3/20/2024", "CMPLNT_TO_TM": "22:39:00", "CRM_ATPT_CPTD_CD": "COMPLETED", "HADEVELOPT": "(null)", "JURIS_DESC": "N.Y. POLICE DEPT", "KY_CD": 344, "LAW_CAT_CD": "MISDEMEANOR", "LOC_OF_OCCUR_DESC": "(null)", "OFNS_DESC": "ASSAULT 3 & RELATED OFFENSES", "PARKS_NM": "(null)", "PD_CD": 101.0, "PD_DESC": "ASSAULT 3", "PREM_TYP_DESC": "STREET", "RPT_DT": "3/20/2024", "X_COORD_CD": 995294.0, "Y_COORD_CD": 233700.0, "Latitude": 40.80812142, "Longitude": -73.96010564, "Lat_Lon": "(40.80812142247918, -73.96010564159721)", "index_right": 0 }, "geometry": { "type": "Point", "coordinates": [ -73.96010564, 40.80812142 ] } },
{ "type": "Feature", "properties": { "CMPLNT_NUM": "289311785", "ADDR_PCT_CD": 24, "BORO_NM": "MANHATTAN", "CMPLNT_FR_DT": "6/28/2024", "CMPLNT_FR_TM": "19:30:00", "CMPLNT_TO_DT": "6/28/2024", "CMPLNT_TO_TM": "19:35:00", "CRM_ATPT_CPTD_CD": "COMPLETED", "HADEVELOPT": "(null)", "JURIS_DESC": "N.Y. TRANSIT POLICE", "KY_CD": 344, "LAW_CAT_CD": "MISDEMEANOR", "LOC_OF_OCCUR_DESC": "(null)", "OFNS_DESC": "ASSAULT 3 & RELATED OFFENSES", "PARKS_NM": "(null)", "PD_CD": 101.0, "PD_DESC": "ASSAULT 3", "PREM_TYP_DESC": "TRANSIT - NYC SUBWAY", "RPT_DT": "6/29/2024", "X_COORD_CD": 994926.0, "Y_COORD_CD": 229324.0, "Latitude": 40.79611095, "Longitude": -73.96144193000001, "Lat_Lon": "(40.79611095494556, -73.96144192977374)", "index_right": 0 }, "geometry": { "type": "Point", "coordinates": [ -73.96144193, 40.79611095 ] } },
{ "type": "Feature", "properties": { "CMPLNT_NUM": "282132617", "ADDR_PCT_CD": 26, "BORO_NM": "MANHATTAN", "CMPLNT_FR_DT": "5/1/2022", "CMPLNT_FR_TM": "12:00:00", "CMPLNT_TO_DT": "2/12/2024", "CMPLNT_TO_TM": "12:09:00", "CRM_ATPT_CPTD_CD": "COMPLETED", "HADEVELOPT": "(null)", "JURIS_DESC": "N.Y. POLICE DEPT", "KY_CD": 578, "LAW_CAT_CD": "VIOLATION", "LOC_OF_OCCUR_DESC": "(null)", "OFNS_DESC": "HARRASSMENT 2", "PARKS_NM": "(null)", "PD_CD": 638.0, "PD_DESC": "HARASSMENT,SUBD 3,4,5", "PREM_TYP_DESC": "STREET", "RPT_DT": "2/12/2024", "X_COORD_CD": 995032.0, "Y_COORD_CD": 233226.0, "Latitude": 40.80682075, "Longitude": -73.96105283, "Lat_Lon": "(40.80682074721227, -73.96105282813934)", "index_right": 0 }, "geometry": { "type": "Point", "coordinates": [ -73.96105283, 40.80682075 ] } },
{ "type": "Feature", "properties": { "CMPLNT_NUM": "282754500", "ADDR_PCT_CD": 28, "BORO_NM": "MANHATTAN", "CMPLNT_FR_DT": "2/24/2024", "CMPLNT_FR_TM": "21:00:00", "CMPLNT_TO_DT": "2/24/2024", "CMPLNT_TO_TM": "21:05:00", "CRM_ATPT_CPTD_CD": "COMPLETED", "HADEVELOPT": "(null)", "JURIS_DESC": "N.Y. POLICE DEPT", "KY_CD": 107, "LAW_CAT_CD": "FELONY", "LOC_OF_OCCUR_DESC": "INSIDE", "OFNS_DESC": "BURGLARY", "PARKS_NM": "(null)", "PD_CD": 223.0, "PD_DESC": "BURGLARY,RESIDENCE,NIGHT", "PREM_TYP_DESC": "RESIDENCE - APT. HOUSE", "RPT_DT": "2/25/2024", "X_COORD_CD": 995583.0, "Y_COORD_CD": 231074.0, "Latitude": 40.800913, "Longitude": -73.959064, "Lat_Lon": "(40.800913, -73.959064)", "index_right": 0 }, "geometry": { "type": "Point", "coordinates": [ -73.959064, 40.800913 ] } },
{ "type": "Feature", "properties": { "CMPLNT_NUM": "284548856", "ADDR_PCT_CD": 26, "BORO_NM": "MANHATTAN", "CMPLNT_FR_DT": "3/30/2024", "CMPLNT_FR_TM": "9:30:00", "CMPLNT_TO_DT": "3/30/2024", "CMPLNT_TO_TM": "10:30:00", "CRM_ATPT_CPTD_CD": "COMPLETED", "HADEVELOPT": "(null)", "JURIS_DESC": "N.Y. POLICE DEPT", "KY_CD": 109, "LAW_CAT_CD": "FELONY", "LOC_OF_OCCUR_DESC": "(null)", "OFNS_DESC": "GRAND LARCENY", "PARKS_NM": "(null)", "PD_CD": 421.0, "PD_DESC": "LARCENY,GRAND FROM VEHICLE/MOTORCYCLE", "PREM_TYP_DESC": "STREET", "RPT_DT": "3/30/2024", "X_COORD_CD": 995236.0, "Y_COORD_CD": 232195.0, "Latitude": 40.80399069, "Longitude": -73.96031762, "Lat_Lon": "(40.803990685157046, -73.96031761838267)", "index_right": 0 }, "geometry": { "type": "Point", "coordinates": [ -73.96031762, 40.80399069 ] } },
{ "type": "Feature", "properties": { "CMPLNT_NUM": "287484653", "ADDR_PCT_CD": 24, "BORO_NM": "MANHATTAN", "CMPLNT_FR_DT": "5/26/2024", "CMPLNT_FR_TM": "1:00:00", "CMPLNT_TO_DT": "5/26/2024", "CMPLNT_TO_TM": "8:30:00", "CRM_ATPT_CPTD_CD": "COMPLETED", "HADEVELOPT": "(null)", "JURIS_DESC": "N.Y. POLICE DEPT", "KY_CD": 578, "LAW_CAT_CD": "VIOLATION", "LOC_OF_OCCUR_DESC": "INSIDE", "OFNS_DESC": "HARRASSMENT 2", "PARKS_NM": "(null)", "PD_CD": 638.0, "PD_DESC": "HARASSMENT,SUBD 3,4,5", "PREM_TYP_DESC": "RESIDENCE - APT. HOUSE", "RPT_DT": "5/26/2024", "X_COORD_CD": 995516.0, "Y_COORD_CD": 230389.0, "Latitude": 40.799035, "Longitude": -73.959307, "Lat_Lon": "(40.799035, -73.959307)", "index_right": 0 }, "geometry": { "type": "Point", "coordinates": [ -73.959307, 40.799035 ] } },
{ "type": "Feature", "properties": { "CMPLNT_NUM": "287534326", "ADDR_PCT_CD": 24, "BORO_NM": "MANHATTAN", "CMPLNT_FR_DT": "5/27/2024", "CMPLNT_FR_TM": "17:20:00", "CMPLNT_TO_DT": "5/27/2024", "CMPLNT_TO_TM": "17:37:00", "CRM_ATPT_CPTD_CD": "COMPLETED", "HADEVELOPT": "(null)", "JURIS_DESC": "N.Y. POLICE DEPT", "KY_CD": 344, "LAW_CAT_CD": "MISDEMEANOR", "LOC_OF_OCCUR_DESC": "INSIDE", "OFNS_DESC": "ASSAULT 3 & RELATED OFFENSES", "PARKS_NM": "(null)", "PD_CD": 101.0, "PD_DESC": "ASSAULT 3", "PREM_TYP_DESC": "RESIDENCE - APT. HOUSE", "RPT_DT": "5/27/2024", "X_COORD_CD": 995583.0, "Y_COORD_CD": 231074.0, "Latitude": 40.800913, "Longitude": -73.959064, "Lat_Lon": "(40.800913, -73.959064)", "index_right": 0 }, "geometry": { "type": "Point", "coordinates": [ -73.959064, 40.800913 ] } },
{ "type": "Feature", "properties": { "CMPLNT_NUM": "288458173", "ADDR_PCT_CD": 24, "BORO_NM": "MANHATTAN", "CMPLNT_FR_DT": "6/12/2024", "CMPLNT_FR_TM": "20:00:00", "CMPLNT_TO_DT": "6/12/2024", "CMPLNT_TO_TM": "20:05:00", "CRM_ATPT_CPTD_CD": "COMPLETED", "HADEVELOPT": "(null)", "JURIS_DESC": "N.Y. POLICE DEPT", "KY_CD": 578, "LAW_CAT_CD": "VIOLATION", "LOC_OF_OCCUR_DESC": "INSIDE", "OFNS_DESC": "HARRASSMENT 2", "PARKS_NM": "(null)", "PD_CD": 638.0, "PD_DESC": "HARASSMENT,SUBD 3,4,5", "PREM_TYP_DESC": "RESIDENCE - APT. HOUSE", "RPT_DT": "6/13/2024", "X_COORD_CD": 995384.0, "Y_COORD_CD": 230150.0, "Latitude": 40.798378, "Longitude": -73.959783, "Lat_Lon": "(40.798378, -73.959783)", "index_right": 0 }, "geometry": { "type": "Point", "coordinates": [ -73.959783, 40.798378 ] } },
{ "type": "Feature", "properties": { "CMPLNT_NUM": "284145525", "ADDR_PCT_CD": 24, "BORO_NM": "MANHATTAN", "CMPLNT_FR_DT": "3/21/2024", "CMPLNT_FR_TM": "23:08:00", "CMPLNT_TO_DT": "3/21/2024", "CMPLNT_TO_TM": "23:13:00", "CRM_ATPT_CPTD_CD": "COMPLETED", "HADEVELOPT": "(null)", "JURIS_DESC": "N.Y. TRANSIT POLICE", "KY_CD": 343, "LAW_CAT_CD": "MISDEMEANOR", "LOC_OF_OCCUR_DESC": "(null)", "OFNS_DESC": "OTHER OFFENSES RELATED TO THEF", "PARKS_NM": "(null)", "PD_CD": 478.0, "PD_DESC": "THEFT OF SERVICES, UNCLASSIFIE", "PREM_TYP_DESC": "TRANSIT - NYC SUBWAY", "RPT_DT": "3/21/2024", "X_COORD_CD": 994926.0, "Y_COORD_CD": 229324.0, "Latitude": 40.79611095, "Longitude": -73.96144193000001, "Lat_Lon": "(40.79611095494556, -73.96144192977374)", "index_right": 0 }, "geometry": { "type": "Point", "coordinates": [ -73.96144193, 40.79611095 ] } },
{ "type": "Feature", "properties": { "CMPLNT_NUM": "286404466", "ADDR_PCT_CD": 28, "BORO_NM": "MANHATTAN", "CMPLNT_FR_DT": "5/4/2024", "CMPLNT_FR_TM": "23:40:00", "CMPLNT_TO_DT": "5/5/2024", "CMPLNT_TO_TM": "0:00:00", "CRM_ATPT_CPTD_CD": "COMPLETED", "HADEVELOPT": "(null)", "JURIS_DESC": "N.Y. POLICE DEPT", "KY_CD": 578, "LAW_CAT_CD": "VIOLATION", "LOC_OF_OCCUR_DESC": "INSIDE", "OFNS_DESC": "HARRASSMENT 2", "PARKS_NM": "(null)", "PD_CD": 638.0, "PD_DESC": "HARASSMENT,SUBD 3,4,5", "PREM_TYP_DESC": "GROCERY/BODEGA", "RPT_DT": "5/5/2024", "X_COORD_CD": 995583.0, "Y_COORD_CD": 231074.0, "Latitude": 40.800913, "Longitude": -73.959064, "Lat_Lon": "(40.800913, -73.959064)", "index_right": 0 }, "geometry": { "type": "Point", "coordinates": [ -73.959064, 40.800913 ] } },
{ "type": "Feature", "properties": { "CMPLNT_NUM": "281167097", "ADDR_PCT_CD": 26, "BORO_NM": "MANHATTAN", "CMPLNT_FR_DT": "1/26/2024", "CMPLNT_FR_TM": "13:09:00", "CMPLNT_TO_DT": "1/26/2024", "CMPLNT_TO_TM": "13:19:00", "CRM_ATPT_CPTD_CD": "COMPLETED", "HADEVELOPT": "(null)", "JURIS_DESC": "N.Y. POLICE DEPT", "KY_CD": 109, "LAW_CAT_CD": "FELONY", "LOC_OF_OCCUR_DESC": "FRONT OF", "OFNS_DESC": "GRAND LARCENY", "PARKS_NM": "(null)", "PD_CD": 443.0, "PD_DESC": "LARCENY,GRAND OF BICYCLE", "PREM_TYP_DESC": "STREET", "RPT_DT": "1/26/2024", "X_COORD_CD": 995269.0, "Y_COORD_CD": 232325.0, "Latitude": 40.804349, "Longitude": -73.960196, "Lat_Lon": "(40.804349, -73.960196)", "index_right": 0 }, "geometry": { "type": "Point", "coordinates": [ -73.960196, 40.804349 ] } },
{ "type": "Feature", "properties": { "CMPLNT_NUM": "287853047", "ADDR_PCT_CD": 28, "BORO_NM": "MANHATTAN", "CMPLNT_FR_DT": "6/2/2024", "CMPLNT_FR_TM": "10:00:00", "CMPLNT_TO_DT": "6/2/2024", "CMPLNT_TO_TM": "10:05:00", "CRM_ATPT_CPTD_CD": "ATTEMPTED", "HADEVELOPT": "(null)", "JURIS_DESC": "N.Y. POLICE DEPT", "KY_CD": 578, "LAW_CAT_CD": "VIOLATION", "LOC_OF_OCCUR_DESC": "FRONT OF", "OFNS_DESC": "HARRASSMENT 2", "PARKS_NM": "(null)", "PD_CD": 638.0, "PD_DESC": "HARASSMENT,SUBD 3,4,5", "PREM_TYP_DESC": "STREET", "RPT_DT": "6/2/2024", "X_COORD_CD": 995583.0, "Y_COORD_CD": 231074.0, "Latitude": 40.800913, "Longitude": -73.959064, "Lat_Lon": "(40.800913, -73.959064)", "index_right": 0 }, "geometry": { "type": "Point", "coordinates": [ -73.959064, 40.800913 ] } },
{ "type": "Feature", "properties": { "CMPLNT_NUM": "281261629", "ADDR_PCT_CD": 26, "BORO_NM": "MANHATTAN", "CMPLNT_FR_DT": "1/28/2024", "CMPLNT_FR_TM": "13:00:00", "CMPLNT_TO_DT": "1/28/2024", "CMPLNT_TO_TM": "22:00:00", "CRM_ATPT_CPTD_CD": "COMPLETED", "HADEVELOPT": "(null)", "JURIS_DESC": "N.Y. POLICE DEPT", "KY_CD": 109, "LAW_CAT_CD": "FELONY", "LOC_OF_OCCUR_DESC": "(null)", "OFNS_DESC": "GRAND LARCENY", "PARKS_NM": "(null)", "PD_CD": 421.0, "PD_DESC": "LARCENY,GRAND FROM VEHICLE/MOTORCYCLE", "PREM_TYP_DESC": "STREET", "RPT_DT": "1/28/2024", "X_COORD_CD": 995026.0, "Y_COORD_CD": 231397.0, "Latitude": 40.80180065, "Longitude": -73.96107744, "Lat_Lon": "(40.80180065289685, -73.96107743720668)", "index_right": 0 }, "geometry": { "type": "Point", "coordinates": [ -73.96107744, 40.80180065 ] } },
{ "type": "Feature", "properties": { "CMPLNT_NUM": "289224420", "ADDR_PCT_CD": 26, "BORO_NM": "MANHATTAN", "CMPLNT_FR_DT": "6/27/2024", "CMPLNT_FR_TM": "22:30:00", "CMPLNT_TO_DT": "6/27/2024", "CMPLNT_TO_TM": "23:15:00", "CRM_ATPT_CPTD_CD": "COMPLETED", "HADEVELOPT": "(null)", "JURIS_DESC": "N.Y. POLICE DEPT", "KY_CD": 344, "LAW_CAT_CD": "MISDEMEANOR", "LOC_OF_OCCUR_DESC": "(null)", "OFNS_DESC": "ASSAULT 3 & RELATED OFFENSES", "PARKS_NM": "(null)", "PD_CD": 101.0, "PD_DESC": "ASSAULT 3", "PREM_TYP_DESC": "STREET", "RPT_DT": "6/28/2024", "X_COORD_CD": 995422.0, "Y_COORD_CD": 231162.0, "Latitude": 40.80115515, "Longitude": -73.95964749, "Lat_Lon": "(40.801155150457596, -73.95964748925182)", "index_right": 0 }, "geometry": { "type": "Point", "coordinates": [ -73.95964749, 40.80115515 ] } },
{ "type": "Feature", "properties": { "CMPLNT_NUM": "285676527", "ADDR_PCT_CD": 26, "BORO_NM": "MANHATTAN", "CMPLNT_FR_DT": "4/21/2024", "CMPLNT_FR_TM": "0:00:00", "CMPLNT_TO_DT": "4/21/2024", "CMPLNT_TO_TM": "5:00:00", "CRM_ATPT_CPTD_CD": "COMPLETED", "HADEVELOPT": "(null)", "JURIS_DESC": "N.Y. POLICE DEPT", "KY_CD": 578, "LAW_CAT_CD": "VIOLATION", "LOC_OF_OCCUR_DESC": "(null)", "OFNS_DESC": "HARRASSMENT 2", "PARKS_NM": "(null)", "PD_CD": 638.0, "PD_DESC": "HARASSMENT,SUBD 3,4,5", "PREM_TYP_DESC": "COLLEGE/UNIVERSITY", "RPT_DT": "4/21/2024", "X_COORD_CD": 995032.0, "Y_COORD_CD": 233226.0, "Latitude": 40.80682075, "Longitude": -73.96105283, "Lat_Lon": "(40.80682074721227, -73.96105282813934)", "index_right": 0 }, "geometry": { "type": "Point", "coordinates": [ -73.96105283, 40.80682075 ] } },
{ "type": "Feature", "properties": { "CMPLNT_NUM": "289126334", "ADDR_PCT_CD": 24, "BORO_NM": "MANHATTAN", "CMPLNT_FR_DT": "6/26/2024", "CMPLNT_FR_TM": "10:50:00", "CMPLNT_TO_DT": "6/26/2024", "CMPLNT_TO_TM": "10:56:00", "CRM_ATPT_CPTD_CD": "COMPLETED", "HADEVELOPT": "(null)", "JURIS_DESC": "N.Y. POLICE DEPT", "KY_CD": 344, "LAW_CAT_CD": "MISDEMEANOR", "LOC_OF_OCCUR_DESC": "FRONT OF", "OFNS_DESC": "ASSAULT 3 & RELATED OFFENSES", "PARKS_NM": "(null)", "PD_CD": 101.0, "PD_DESC": "ASSAULT 3", "PREM_TYP_DESC": "STREET", "RPT_DT": "6/26/2024", "X_COORD_CD": 995643.0, "Y_COORD_CD": 230619.0, "Latitude": 40.799665, "Longitude": -73.958848, "Lat_Lon": "(40.799665, -73.958848)", "index_right": 0 }, "geometry": { "type": "Point", "coordinates": [ -73.958848, 40.799665 ] } },
{ "type": "Feature", "properties": { "CMPLNT_NUM": "282568570", "ADDR_PCT_CD": 26, "BORO_NM": "MANHATTAN", "CMPLNT_FR_DT": "2/21/2024", "CMPLNT_FR_TM": "12:28:00", "CMPLNT_TO_DT": "2/21/2024", "CMPLNT_TO_TM": "12:41:00", "CRM_ATPT_CPTD_CD": "COMPLETED", "HADEVELOPT": "(null)", "JURIS_DESC": "N.Y. POLICE DEPT", "KY_CD": 351, "LAW_CAT_CD": "MISDEMEANOR", "LOC_OF_OCCUR_DESC": "FRONT OF", "OFNS_DESC": "CRIMINAL MISCHIEF & RELATED OF", "PARKS_NM": "(null)", "PD_CD": 258.0, "PD_DESC": "CRIMINAL MISCHIEF 4TH, GRAFFIT", "PREM_TYP_DESC": "STREET", "RPT_DT": "2/21/2024", "X_COORD_CD": 995357.0, "Y_COORD_CD": 233815.0, "Latitude": 40.808437, "Longitude": -73.959877, "Lat_Lon": "(40.808437, -73.959877)", "index_right": 0 }, "geometry": { "type": "Point", "coordinates": [ -73.959877, 40.808437 ] } },
{ "type": "Feature", "properties": { "CMPLNT_NUM": "288795534", "ADDR_PCT_CD": 22, "BORO_NM": "MANHATTAN", "CMPLNT_FR_DT": "6/19/2024", "CMPLNT_FR_TM": "11:53:00", "CMPLNT_TO_DT": "6/20/2024", "CMPLNT_TO_TM": "0:09:00", "CRM_ATPT_CPTD_CD": "COMPLETED", "HADEVELOPT": "(null)", "JURIS_DESC": "N.Y. POLICE DEPT", "KY_CD": 344, "LAW_CAT_CD": "MISDEMEANOR", "LOC_OF_OCCUR_DESC": "FRONT OF", "OFNS_DESC": "ASSAULT 3 & RELATED OFFENSES", "PARKS_NM": "(null)", "PD_CD": 101.0, "PD_DESC": "ASSAULT 3", "PREM_TYP_DESC": "OTHER", "RPT_DT": "6/20/2024", "X_COORD_CD": 996042.0, "Y_COORD_CD": 226910.0, "Latitude": 40.78948376, "Longitude": -73.95741556, "Lat_Lon": "(40.78948375859013, -73.95741555749171)", "index_right": 0 }, "geometry": { "type": "Point", "coordinates": [ -73.95741556, 40.78948376 ] } },
{ "type": "Feature", "properties": { "CMPLNT_NUM": "286664599", "ADDR_PCT_CD": 22, "BORO_NM": "MANHATTAN", "CMPLNT_FR_DT": "5/6/2024", "CMPLNT_FR_TM": "20:00:00", "CMPLNT_TO_DT": "5/6/2024", "CMPLNT_TO_TM": "20:30:00", "CRM_ATPT_CPTD_CD": "COMPLETED", "HADEVELOPT": "(null)", "JURIS_DESC": "N.Y. POLICE DEPT", "KY_CD": 351, "LAW_CAT_CD": "MISDEMEANOR", "LOC_OF_OCCUR_DESC": "(null)", "OFNS_DESC": "CRIMINAL MISCHIEF & RELATED OF", "PARKS_NM": "(null)", "PD_CD": 258.0, "PD_DESC": "CRIMINAL MISCHIEF 4TH, GRAFFIT", "PREM_TYP_DESC": "PARK/PLAYGROUND", "RPT_DT": "5/6/2024", "X_COORD_CD": 996042.0, "Y_COORD_CD": 226910.0, "Latitude": 40.78948376, "Longitude": -73.95741556, "Lat_Lon": "(40.78948375859013, -73.95741555749171)", "index_right": 0 }, "geometry": { "type": "Point", "coordinates": [ -73.95741556, 40.78948376 ] } },
{ "type": "Feature", "properties": { "CMPLNT_NUM": "285536414", "ADDR_PCT_CD": 22, "BORO_NM": "MANHATTAN", "CMPLNT_FR_DT": "4/5/2024", "CMPLNT_FR_TM": "18:45:00", "CMPLNT_TO_DT": "4/15/2024", "CMPLNT_TO_TM": "19:30:00", "CRM_ATPT_CPTD_CD": "COMPLETED", "HADEVELOPT": "(null)", "JURIS_DESC": "N.Y. POLICE DEPT", "KY_CD": 341, "LAW_CAT_CD": "MISDEMEANOR", "LOC_OF_OCCUR_DESC": "(null)", "OFNS_DESC": "PETIT LARCENY", "PARKS_NM": "(null)", "PD_CD": 338.0, "PD_DESC": "LARCENY,PETIT FROM BUILDING,UN", "PREM_TYP_DESC": "COMMERCIAL BUILDING", "RPT_DT": "4/12/2024", "X_COORD_CD": 996042.0, "Y_COORD_CD": 226910.0, "Latitude": 40.78948376, "Longitude": -73.95741556, "Lat_Lon": "(40.78948375859013, -73.95741555749171)", "index_right": 0 }, "geometry": { "type": "Point", "coordinates": [ -73.95741556, 40.78948376 ] } }
]
}
